{
"type": "FeatureCollection",
"name": "facilities",
"crs": { "type": "name", "properties": { "name": "urn:ogc:def:crs:OGC:1.3:CRS84" } },
"xy_coordinate_resolution": 1e-06,
"features": [
{ "type": "Feature", "properties": { "STATE_ID": 4, "DISTRICT_I": 378, "BLOCK_ID": 2460, "HAB_ID": 872603, "FACILITY_I": 956231, "FAC_DESC": "P Songkai Bus stand", "FAC_CATEGO": "Transport/Admin" }, "geometry": { "type": "Point", "coordinates": [ 93.291163, 25.096535 ] } },
{ "type": "Feature", "properties": { "STATE_ID": 4, "DISTRICT_I": 378, "BLOCK_ID": 2460, "HAB_ID": 792772, "FACILITY_I": 956238, "FAC_DESC": "N Songkai Bus stand", "FAC_CATEGO": "Transport/Admin" }, "geometry": { "type": "Point", "coordinates": [ 93.291127, 25.0966 ] } },
{ "type": "Feature", "properties": { "STATE_ID": 4, "DISTRICT_I": 378, "BLOCK_ID": 1648, "HAB_ID": 1042527, "FACILITY_I": 919070, "FAC_DESC": "Rice Mill", "FAC_CATEGO": "Agro" }, "geometry": { "type": "Point", "coordinates": [ 92.969845, 25.57105 ] } },
{ "type": "Feature", "properties": { "STATE_ID": 4, "DISTRICT_I": 378, "BLOCK_ID": 1647, "HAB_ID": 669176, "FACILITY_I": 864161, "FAC_DESC": "Manderdisa Bazaar", "FAC_CATEGO": "Agro" }, "geometry": { "type": "Point", "coordinates": [ 93.139525, 25.733523 ] } },
{ "type": "Feature", "properties": { "STATE_ID": 4, "DISTRICT_I": 378, "BLOCK_ID": 1647, "HAB_ID": 1323618, "FACILITY_I": 864247, "FAC_DESC": "Diyung Valley Development Block", "FAC_CATEGO": "Transport/Admin" }, "geometry": { "type": "Point", "coordinates": [ 93.139205, 25.296717 ] } },
{ "type": "Feature", "properties": { "STATE_ID": 4, "DISTRICT_I": 378, "BLOCK_ID": 1648, "HAB_ID": 797957, "FACILITY_I": 914426, "FAC_DESC": "Bus Stand", "FAC_CATEGO": "Transport/Admin" }, "geometry": { "type": "Point", "coordinates": [ 92.960015, 25.57659 ] } },
{ "type": "Feature", "properties": { "STATE_ID": 4, "DISTRICT_I": 378, "BLOCK_ID": 2460, "HAB_ID": 1185595, "FACILITY_I": 862682, "FAC_DESC": "Jawahar Navodaya Vidyalaya Haflong", "FAC_CATEGO": "Education" }, "geometry": { "type": "Point", "coordinates": [ 93.021, 25.217252 ] } },
{ "type": "Feature", "properties": { "STATE_ID": 4, "DISTRICT_I": 378, "BLOCK_ID": 4283, "HAB_ID": 949219, "FACILITY_I": 894420, "FAC_DESC": "Veterinary dispensary", "FAC_CATEGO": "Medical" }, "geometry": { "type": "Point", "coordinates": [ 92.797215, 25.417367 ] } },
{ "type": "Feature", "properties": { "STATE_ID": 4, "DISTRICT_I": 378, "BLOCK_ID": 1648, "HAB_ID": 233422, "FACILITY_I": 894127, "FAC_DESC": "Diyungbra High School", "FAC_CATEGO": "Education" }, "geometry": { "type": "Point", "coordinates": [ 92.914915, 25.756693 ] } },
{ "type": "Feature", "properties": { "STATE_ID": 4, "DISTRICT_I": 378, "BLOCK_ID": 4283, "HAB_ID": 1318521, "FACILITY_I": 922821, "FAC_DESC": "Vaitang Hebron Bus Stand", "FAC_CATEGO": "Transport/Admin" }, "geometry": { "type": "Point", "coordinates": [ 92.813655, 25.326782 ] } },
{ "type": "Feature", "properties": { "STATE_ID": 4, "DISTRICT_I": 378, "BLOCK_ID": 2138, "HAB_ID": 736262, "FACILITY_I": 895606, "FAC_DESC": "KUBING HIGH SCHOOL", "FAC_CATEGO": "Education" }, "geometry": { "type": "Point", "coordinates": [ 92.966767, 25.192986 ] } },
{ "type": "Feature", "properties": { "STATE_ID": 4, "DISTRICT_I": 378, "BLOCK_ID": 1647, "HAB_ID": 417102, "FACILITY_I": 863561, "FAC_DESC": "HATIKHALI HIGH SCHOOL", "FAC_CATEGO": "Education" }, "geometry": { "type": "Point", "coordinates": [ 93.097437, 25.635026 ] } },
{ "type": "Feature", "properties": { "STATE_ID": 4, "DISTRICT_I": 378, "BLOCK_ID": 1648, "HAB_ID": 1321372, "FACILITY_I": 947336, "FAC_DESC": "sugar cane processing", "FAC_CATEGO": "Agro" }, "geometry": { "type": "Point", "coordinates": [ 93.02384, 25.783429 ] } },
{ "type": "Feature", "properties": { "STATE_ID": 4, "DISTRICT_I": 378, "BLOCK_ID": 2138, "HAB_ID": 1322434, "FACILITY_I": 895627, "FAC_DESC": "MCD JUNIOR COLLEGE", "FAC_CATEGO": "Education" }, "geometry": { "type": "Point", "coordinates": [ 92.857233, 25.108235 ] } },
{ "type": "Feature", "properties": { "STATE_ID": 4, "DISTRICT_I": 378, "BLOCK_ID": 4283, "HAB_ID": 1317938, "FACILITY_I": 943641, "FAC_DESC": "Miyungpur Bus Stand", "FAC_CATEGO": "Transport/Admin" }, "geometry": { "type": "Point", "coordinates": [ 92.74705, 25.509145 ] } },
{ "type": "Feature", "properties": { "STATE_ID": 4, "DISTRICT_I": 378, "BLOCK_ID": 2138, "HAB_ID": 1185575, "FACILITY_I": 905738, "FAC_DESC": "Saraswati Vidya Mandir High School", "FAC_CATEGO": "Education" }, "geometry": { "type": "Point", "coordinates": [ 93.023738, 25.145882 ] } },
{ "type": "Feature", "properties": { "STATE_ID": 4, "DISTRICT_I": 378, "BLOCK_ID": 2460, "HAB_ID": 1066093, "FACILITY_I": 862554, "FAC_DESC": "Tuolpui High School", "FAC_CATEGO": "Education" }, "geometry": { "type": "Point", "coordinates": [ 93.263462, 25.199483 ] } },
{ "type": "Feature", "properties": { "STATE_ID": 4, "DISTRICT_I": 378, "BLOCK_ID": 1647, "HAB_ID": 631188, "FACILITY_I": 864226, "FAC_DESC": "Longkhor", "FAC_CATEGO": "Transport/Admin" }, "geometry": { "type": "Point", "coordinates": [ 93.143361, 25.283093 ] } },
{ "type": "Feature", "properties": { "STATE_ID": 4, "DISTRICT_I": 378, "BLOCK_ID": 1647, "HAB_ID": 619386, "FACILITY_I": 909831, "FAC_DESC": "Lamadisa Bus Stand", "FAC_CATEGO": "Transport/Admin" }, "geometry": { "type": "Point", "coordinates": [ 92.988521, 25.349301 ] } },
{ "type": "Feature", "properties": { "STATE_ID": 4, "DISTRICT_I": 378, "BLOCK_ID": 1647, "HAB_ID": 49264, "FACILITY_I": 908096, "FAC_DESC": "Ashrang Bus Stand", "FAC_CATEGO": "Transport/Admin" }, "geometry": { "type": "Point", "coordinates": [ 92.993819, 25.332644 ] } },
{ "type": "Feature", "properties": { "STATE_ID": 4, "DISTRICT_I": 378, "BLOCK_ID": 1648, "HAB_ID": 233422, "FACILITY_I": 894292, "FAC_DESC": "Kasturba Gandhi Balika Vidyalaya", "FAC_CATEGO": "Education" }, "geometry": { "type": "Point", "coordinates": [ 92.913319, 25.756979 ] } },
{ "type": "Feature", "properties": { "STATE_ID": 4, "DISTRICT_I": 378, "BLOCK_ID": 1648, "HAB_ID": 631198, "FACILITY_I": 894541, "FAC_DESC": "Longku Weekly Market", "FAC_CATEGO": "Agro" }, "geometry": { "type": "Point", "coordinates": [ 92.795843, 25.664766 ] } },
{ "type": "Feature", "properties": { "STATE_ID": 4, "DISTRICT_I": 378, "BLOCK_ID": 2138, "HAB_ID": 1322660, "FACILITY_I": 894606, "FAC_DESC": "Canara Bank", "FAC_CATEGO": "Transport/Admin" }, "geometry": { "type": "Point", "coordinates": [ 93.017658, 25.161542 ] } },
{ "type": "Feature", "properties": { "STATE_ID": 4, "DISTRICT_I": 378, "BLOCK_ID": 1648, "HAB_ID": 789926, "FACILITY_I": 863740, "FAC_DESC": "Veterinary Firsy Aid Centre", "FAC_CATEGO": "Medical" }, "geometry": { "type": "Point", "coordinates": [ 92.971134, 25.563631 ] } },
{ "type": "Feature", "properties": { "STATE_ID": 4, "DISTRICT_I": 378, "BLOCK_ID": 1647, "HAB_ID": 651709, "FACILITY_I": 864075, "FAC_DESC": "Maibang Bazaar", "FAC_CATEGO": "Agro" }, "geometry": { "type": "Point", "coordinates": [ 93.138558, 25.302723 ] } },
{ "type": "Feature", "properties": { "STATE_ID": 4, "DISTRICT_I": 378, "BLOCK_ID": 2138, "HAB_ID": 1322550, "FACILITY_I": 895557, "FAC_DESC": "HARANGAJAO MPHC", "FAC_CATEGO": "Medical" }, "geometry": { "type": "Point", "coordinates": [ 92.855728, 25.115395 ] } },
{ "type": "Feature", "properties": { "STATE_ID": 4, "DISTRICT_I": 378, "BLOCK_ID": 1648, "HAB_ID": 46521, "FACILITY_I": 917156, "FAC_DESC": "Bus stand", "FAC_CATEGO": "Transport/Admin" }, "geometry": { "type": "Point", "coordinates": [ 92.906833, 25.703195 ] } },
{ "type": "Feature", "properties": { "STATE_ID": 4, "DISTRICT_I": 378, "BLOCK_ID": 4283, "HAB_ID": 1073810, "FACILITY_I": 931530, "FAC_DESC": "Standard English School", "FAC_CATEGO": "Education" }, "geometry": { "type": "Point", "coordinates": [ 92.735722, 25.50562 ] } },
{ "type": "Feature", "properties": { "STATE_ID": 4, "DISTRICT_I": 378, "BLOCK_ID": 2460, "HAB_ID": 419950, "FACILITY_I": 957159, "FAC_DESC": "Hekakong Bus Stand", "FAC_CATEGO": "Transport/Admin" }, "geometry": { "type": "Point", "coordinates": [ 93.175878, 25.17805 ] } },
{ "type": "Feature", "properties": { "STATE_ID": 4, "DISTRICT_I": 378, "BLOCK_ID": 1648, "HAB_ID": 1321682, "FACILITY_I": 894562, "FAC_DESC": "Rajbari Bus Stand", "FAC_CATEGO": "Transport/Admin" }, "geometry": { "type": "Point", "coordinates": [ 92.937308, 25.801433 ] } },
{ "type": "Feature", "properties": { "STATE_ID": 4, "DISTRICT_I": 378, "BLOCK_ID": 2460, "HAB_ID": 388212, "FACILITY_I": 954866, "FAC_DESC": "Gurubari Bus stand", "FAC_CATEGO": "Transport/Admin" }, "geometry": { "type": "Point", "coordinates": [ 93.027131, 25.248027 ] } },
{ "type": "Feature", "properties": { "STATE_ID": 4, "DISTRICT_I": 378, "BLOCK_ID": 4283, "HAB_ID": 1317704, "FACILITY_I": 963003, "FAC_DESC": "Bus Stand Kamala Nagar", "FAC_CATEGO": "Transport/Admin" }, "geometry": { "type": "Point", "coordinates": [ 92.732437, 25.504143 ] } },
{ "type": "Feature", "properties": { "STATE_ID": 4, "DISTRICT_I": 378, "BLOCK_ID": 4283, "HAB_ID": 363857, "FACILITY_I": 943634, "FAC_DESC": "Gobinda Nagar Bus Stand", "FAC_CATEGO": "Transport/Admin" }, "geometry": { "type": "Point", "coordinates": [ 92.723818, 25.484697 ] } },
{ "type": "Feature", "properties": { "STATE_ID": 4, "DISTRICT_I": 378, "BLOCK_ID": 4283, "HAB_ID": 1185620, "FACILITY_I": 943636, "FAC_DESC": "Tumbung Bus Stand", "FAC_CATEGO": "Transport/Admin" }, "geometry": { "type": "Point", "coordinates": [ 92.72346, 25.492133 ] } },
{ "type": "Feature", "properties": { "STATE_ID": 4, "DISTRICT_I": 378, "BLOCK_ID": 2138, "HAB_ID": 1185575, "FACILITY_I": 962754, "FAC_DESC": "KAANCH FACTORY", "FAC_CATEGO": "Agro" }, "geometry": { "type": "Point", "coordinates": [ 93.022297, 25.14445 ] } },
{ "type": "Feature", "properties": { "STATE_ID": 4, "DISTRICT_I": 378, "BLOCK_ID": 1648, "HAB_ID": 177731, "FACILITY_I": 878537, "FAC_DESC": "J B Hagjer Memorial Junior College", "FAC_CATEGO": "Education" }, "geometry": { "type": "Point", "coordinates": [ 92.942519, 25.791702 ] } },
{ "type": "Feature", "properties": { "STATE_ID": 4, "DISTRICT_I": 378, "BLOCK_ID": 1647, "HAB_ID": 33359, "FACILITY_I": 909840, "FAC_DESC": "Amlangbra Bus Stand", "FAC_CATEGO": "Transport/Admin" }, "geometry": { "type": "Point", "coordinates": [ 92.984139, 25.36793 ] } },
{ "type": "Feature", "properties": { "STATE_ID": 4, "DISTRICT_I": 378, "BLOCK_ID": 1647, "HAB_ID": 300248, "FACILITY_I": 946208, "FAC_DESC": "Didaodip Bus Stand No 2", "FAC_CATEGO": "Transport/Admin" }, "geometry": { "type": "Point", "coordinates": [ 93.146415, 25.254056 ] } },
{ "type": "Feature", "properties": { "STATE_ID": 4, "DISTRICT_I": 378, "BLOCK_ID": 1647, "HAB_ID": 485897, "FACILITY_I": 864184, "FAC_DESC": "Kalachand Bus Stand", "FAC_CATEGO": "Transport/Admin" }, "geometry": { "type": "Point", "coordinates": [ 93.133072, 25.340974 ] } },
{ "type": "Feature", "properties": { "STATE_ID": 4, "DISTRICT_I": 378, "BLOCK_ID": 1647, "HAB_ID": 245749, "FACILITY_I": 863982, "FAC_DESC": "MAIBANG HIGHER SECONDARY SCHOOL", "FAC_CATEGO": "Education" }, "geometry": { "type": "Point", "coordinates": [ 93.135611, 25.302619 ] } },
{ "type": "Feature", "properties": { "STATE_ID": 4, "DISTRICT_I": 378, "BLOCK_ID": 1647, "HAB_ID": 1323540, "FACILITY_I": 863984, "FAC_DESC": "Maibang Degree College", "FAC_CATEGO": "Education" }, "geometry": { "type": "Point", "coordinates": [ 93.15221, 25.288312 ] } },
{ "type": "Feature", "properties": { "STATE_ID": 4, "DISTRICT_I": 378, "BLOCK_ID": 1648, "HAB_ID": 797957, "FACILITY_I": 894183, "FAC_DESC": "Hamri Saraswati Vidya Mandir School", "FAC_CATEGO": "Education" }, "geometry": { "type": "Point", "coordinates": [ 92.963773, 25.575444 ] } },
{ "type": "Feature", "properties": { "STATE_ID": 4, "DISTRICT_I": 378, "BLOCK_ID": 1648, "HAB_ID": 866684, "FACILITY_I": 894583, "FAC_DESC": "Diyungbra Block", "FAC_CATEGO": "Transport/Admin" }, "geometry": { "type": "Point", "coordinates": [ 92.915473, 25.741209 ] } },
{ "type": "Feature", "properties": { "STATE_ID": 4, "DISTRICT_I": 378, "BLOCK_ID": 1648, "HAB_ID": 1321568, "FACILITY_I": 914456, "FAC_DESC": "Bus Stand", "FAC_CATEGO": "Transport/Admin" }, "geometry": { "type": "Point", "coordinates": [ 92.91184, 25.662548 ] } },
{ "type": "Feature", "properties": { "STATE_ID": 4, "DISTRICT_I": 378, "BLOCK_ID": 2460, "HAB_ID": 651215, "FACILITY_I": 956647, "FAC_DESC": "State Bank of India", "FAC_CATEGO": "Transport/Admin" }, "geometry": { "type": "Point", "coordinates": [ 93.114174, 25.179567 ] } },
{ "type": "Feature", "properties": { "STATE_ID": 4, "DISTRICT_I": 378, "BLOCK_ID": 4283, "HAB_ID": 949219, "FACILITY_I": 922823, "FAC_DESC": "New Sangbar Bus Stand", "FAC_CATEGO": "Transport/Admin" }, "geometry": { "type": "Point", "coordinates": [ 92.792343, 25.412805 ] } },
{ "type": "Feature", "properties": { "STATE_ID": 4, "DISTRICT_I": 378, "BLOCK_ID": 2138, "HAB_ID": 304192, "FACILITY_I": 895608, "FAC_DESC": "DITTOCKCHERRA HIGH SCHOOL", "FAC_CATEGO": "Education" }, "geometry": { "type": "Point", "coordinates": [ 92.80427, 25.09023 ] } },
{ "type": "Feature", "properties": { "STATE_ID": 4, "DISTRICT_I": 378, "BLOCK_ID": 4283, "HAB_ID": 129973, "FACILITY_I": 943629, "FAC_DESC": "Bagha Bazar", "FAC_CATEGO": "Agro" }, "geometry": { "type": "Point", "coordinates": [ 92.864285, 25.407565 ] } },
{ "type": "Feature", "properties": { "STATE_ID": 4, "DISTRICT_I": 378, "BLOCK_ID": 1648, "HAB_ID": 866684, "FACILITY_I": 894522, "FAC_DESC": "Block Bazaar", "FAC_CATEGO": "Agro" }, "geometry": { "type": "Point", "coordinates": [ 92.914807, 25.740049 ] } },
{ "type": "Feature", "properties": { "STATE_ID": 4, "DISTRICT_I": 378, "BLOCK_ID": 1647, "HAB_ID": 385998, "FACILITY_I": 908108, "FAC_DESC": "Gunjung Tea Estate", "FAC_CATEGO": "Agro" }, "geometry": { "type": "Point", "coordinates": [ 93.019153, 25.303437 ] } },
{ "type": "Feature", "properties": { "STATE_ID": 4, "DISTRICT_I": 378, "BLOCK_ID": 2460, "HAB_ID": 392075, "FACILITY_I": 862791, "FAC_DESC": "Hejaichak Market", "FAC_CATEGO": "Agro" }, "geometry": { "type": "Point", "coordinates": [ 93.339598, 25.225733 ] } },
{ "type": "Feature", "properties": { "STATE_ID": 4, "DISTRICT_I": 378, "BLOCK_ID": 1647, "HAB_ID": 797646, "FACILITY_I": 946215, "FAC_DESC": "Diblong Bus Stand", "FAC_CATEGO": "Transport/Admin" }, "geometry": { "type": "Point", "coordinates": [ 93.092368, 25.608759 ] } },
{ "type": "Feature", "properties": { "STATE_ID": 4, "DISTRICT_I": 378, "BLOCK_ID": 4283, "HAB_ID": 302538, "FACILITY_I": 962996, "FAC_DESC": "Bus Stand Dikrengma", "FAC_CATEGO": "Transport/Admin" }, "geometry": { "type": "Point", "coordinates": [ 92.937883, 25.430118 ] } },
{ "type": "Feature", "properties": { "STATE_ID": 4, "DISTRICT_I": 378, "BLOCK_ID": 2460, "HAB_ID": 177635, "FACILITY_I": 956226, "FAC_DESC": "Collection shed at Lower Boro Nianglo", "FAC_CATEGO": "Agro" }, "geometry": { "type": "Point", "coordinates": [ 93.322445, 25.188365 ] } },
{ "type": "Feature", "properties": { "STATE_ID": 4, "DISTRICT_I": 378, "BLOCK_ID": 4283, "HAB_ID": 726926, "FACILITY_I": 922819, "FAC_DESC": "Muoldam Bus Stand", "FAC_CATEGO": "Transport/Admin" }, "geometry": { "type": "Point", "coordinates": [ 92.81895, 25.212863 ] } },
{ "type": "Feature", "properties": { "STATE_ID": 4, "DISTRICT_I": 378, "BLOCK_ID": 1647, "HAB_ID": 418314, "FACILITY_I": 863991, "FAC_DESC": "Hajadisa SHC", "FAC_CATEGO": "Medical" }, "geometry": { "type": "Point", "coordinates": [ 93.295877, 25.380117 ] } },
{ "type": "Feature", "properties": { "STATE_ID": 4, "DISTRICT_I": 378, "BLOCK_ID": 1648, "HAB_ID": 1103909, "FACILITY_I": 894139, "FAC_DESC": "Raja Govindh Chandra Aarsh Gurukulam", "FAC_CATEGO": "Education" }, "geometry": { "type": "Point", "coordinates": [ 92.972935, 25.780431 ] } },
{ "type": "Feature", "properties": { "STATE_ID": 4, "DISTRICT_I": 378, "BLOCK_ID": 1648, "HAB_ID": 1321682, "FACILITY_I": 894190, "FAC_DESC": "Diyung Valley English School", "FAC_CATEGO": "Education" }, "geometry": { "type": "Point", "coordinates": [ 92.936637, 25.800879 ] } },
{ "type": "Feature", "properties": { "STATE_ID": 4, "DISTRICT_I": 378, "BLOCK_ID": 1648, "HAB_ID": 304135, "FACILITY_I": 914396, "FAC_DESC": "Bus Stand", "FAC_CATEGO": "Transport/Admin" }, "geometry": { "type": "Point", "coordinates": [ 92.956672, 25.485608 ] } },
{ "type": "Feature", "properties": { "STATE_ID": 4, "DISTRICT_I": 378, "BLOCK_ID": 4283, "HAB_ID": 1073810, "FACILITY_I": 894557, "FAC_DESC": "Umrangso Bus Stand", "FAC_CATEGO": "Transport/Admin" }, "geometry": { "type": "Point", "coordinates": [ 92.736817, 25.51188 ] } },
{ "type": "Feature", "properties": { "STATE_ID": 4, "DISTRICT_I": 378, "BLOCK_ID": 1647, "HAB_ID": 1320465, "FACILITY_I": 864242, "FAC_DESC": "State Bank of India Langting Branch", "FAC_CATEGO": "Transport/Admin" }, "geometry": { "type": "Point", "coordinates": [ 93.115009, 25.497381 ] } },
{ "type": "Feature", "properties": { "STATE_ID": 4, "DISTRICT_I": 378, "BLOCK_ID": 2138, "HAB_ID": 1322550, "FACILITY_I": 895611, "FAC_DESC": "PUBLIC HIGH SCHOOL", "FAC_CATEGO": "Education" }, "geometry": { "type": "Point", "coordinates": [ 92.850629, 25.112925 ] } },
{ "type": "Feature", "properties": { "STATE_ID": 4, "DISTRICT_I": 378, "BLOCK_ID": 2138, "HAB_ID": 1185575, "FACILITY_I": 905754, "FAC_DESC": "Holy Spirit Hospital", "FAC_CATEGO": "Medical" }, "geometry": { "type": "Point", "coordinates": [ 93.013376, 25.1668 ] } },
{ "type": "Feature", "properties": { "STATE_ID": 4, "DISTRICT_I": 378, "BLOCK_ID": 2138, "HAB_ID": 631194, "FACILITY_I": 905789, "FAC_DESC": "PMS High School", "FAC_CATEGO": "Education" }, "geometry": { "type": "Point", "coordinates": [ 93.018031, 25.177859 ] } },
{ "type": "Feature", "properties": { "STATE_ID": 4, "DISTRICT_I": 378, "BLOCK_ID": 1647, "HAB_ID": 381588, "FACILITY_I": 908094, "FAC_DESC": "Guliabra Bus Stand", "FAC_CATEGO": "Transport/Admin" }, "geometry": { "type": "Point", "coordinates": [ 93.014637, 25.298708 ] } },
{ "type": "Feature", "properties": { "STATE_ID": 4, "DISTRICT_I": 378, "BLOCK_ID": 2138, "HAB_ID": 1185582, "FACILITY_I": 894471, "FAC_DESC": "Bank of India", "FAC_CATEGO": "Transport/Admin" }, "geometry": { "type": "Point", "coordinates": [ 93.014902, 25.169568 ] } },
{ "type": "Feature", "properties": { "STATE_ID": 4, "DISTRICT_I": 378, "BLOCK_ID": 1648, "HAB_ID": 233422, "FACILITY_I": 894569, "FAC_DESC": "Thaosen fuel Station", "FAC_CATEGO": "Transport/Admin" }, "geometry": { "type": "Point", "coordinates": [ 92.920762, 25.759544 ] } },
{ "type": "Feature", "properties": { "STATE_ID": 4, "DISTRICT_I": 378, "BLOCK_ID": 1648, "HAB_ID": 888795, "FACILITY_I": 894169, "FAC_DESC": "SM Hojai M High School", "FAC_CATEGO": "Education" }, "geometry": { "type": "Point", "coordinates": [ 92.91947, 25.65966 ] } },
{ "type": "Feature", "properties": { "STATE_ID": 4, "DISTRICT_I": 378, "BLOCK_ID": 1648, "HAB_ID": 300598, "FACILITY_I": 894067, "FAC_DESC": "Digandu High School", "FAC_CATEGO": "Education" }, "geometry": { "type": "Point", "coordinates": [ 93.0018, 25.783182 ] } },
{ "type": "Feature", "properties": { "STATE_ID": 4, "DISTRICT_I": 378, "BLOCK_ID": 1648, "HAB_ID": 1321261, "FACILITY_I": 914459, "FAC_DESC": "Bus Stand", "FAC_CATEGO": "Transport/Admin" }, "geometry": { "type": "Point", "coordinates": [ 92.909459, 25.667169 ] } },
{ "type": "Feature", "properties": { "STATE_ID": 4, "DISTRICT_I": 378, "BLOCK_ID": 4283, "HAB_ID": 72447, "FACILITY_I": 963000, "FAC_DESC": "Bus Stand Baigao", "FAC_CATEGO": "Transport/Admin" }, "geometry": { "type": "Point", "coordinates": [ 92.878512, 25.418193 ] } },
{ "type": "Feature", "properties": { "STATE_ID": 4, "DISTRICT_I": 378, "BLOCK_ID": 4283, "HAB_ID": 257838, "FACILITY_I": 962391, "FAC_DESC": "Dehangi Tinali Bus Stand", "FAC_CATEGO": "Transport/Admin" }, "geometry": { "type": "Point", "coordinates": [ 92.989903, 25.419 ] } },
{ "type": "Feature", "properties": { "STATE_ID": 4, "DISTRICT_I": 378, "BLOCK_ID": 4283, "HAB_ID": 631209, "FACILITY_I": 962396, "FAC_DESC": "Longmaisadikreng Bus Stand", "FAC_CATEGO": "Transport/Admin" }, "geometry": { "type": "Point", "coordinates": [ 92.990397, 25.427967 ] } },
{ "type": "Feature", "properties": { "STATE_ID": 4, "DISTRICT_I": 378, "BLOCK_ID": 4283, "HAB_ID": 620588, "FACILITY_I": 931269, "FAC_DESC": "Langlai Hasnu Bus Stand", "FAC_CATEGO": "Transport/Admin" }, "geometry": { "type": "Point", "coordinates": [ 92.96398, 25.442358 ] } },
{ "type": "Feature", "properties": { "STATE_ID": 4, "DISTRICT_I": 378, "BLOCK_ID": 2460, "HAB_ID": 613745, "FACILITY_I": 862524, "FAC_DESC": "Laisong High School", "FAC_CATEGO": "Education" }, "geometry": { "type": "Point", "coordinates": [ 93.295987, 25.202227 ] } },
{ "type": "Feature", "properties": { "STATE_ID": 4, "DISTRICT_I": 378, "BLOCK_ID": 1648, "HAB_ID": 631198, "FACILITY_I": 919105, "FAC_DESC": "Bus Stand", "FAC_CATEGO": "Transport/Admin" }, "geometry": { "type": "Point", "coordinates": [ 92.793962, 25.662743 ] } },
{ "type": "Feature", "properties": { "STATE_ID": 4, "DISTRICT_I": 378, "BLOCK_ID": 1647, "HAB_ID": 1103512, "FACILITY_I": 946211, "FAC_DESC": "Warigiding Bus Stand", "FAC_CATEGO": "Transport/Admin" }, "geometry": { "type": "Point", "coordinates": [ 93.145103, 25.478575 ] } },
{ "type": "Feature", "properties": { "STATE_ID": 4, "DISTRICT_I": 378, "BLOCK_ID": 1647, "HAB_ID": 417102, "FACILITY_I": 946220, "FAC_DESC": "Hatikhali Bus Stand No. 2", "FAC_CATEGO": "Transport/Admin" }, "geometry": { "type": "Point", "coordinates": [ 93.099909, 25.637626 ] } },
{ "type": "Feature", "properties": { "STATE_ID": 4, "DISTRICT_I": 378, "BLOCK_ID": 1648, "HAB_ID": 304136, "FACILITY_I": 920237, "FAC_DESC": "Bus Stand", "FAC_CATEGO": "Transport/Admin" }, "geometry": { "type": "Point", "coordinates": [ 92.935649, 25.770264 ] } },
{ "type": "Feature", "properties": { "STATE_ID": 4, "DISTRICT_I": 378, "BLOCK_ID": 2138, "HAB_ID": 736411, "FACILITY_I": 895569, "FAC_DESC": "Veterinary Firsy Aid Centre", "FAC_CATEGO": "Medical" }, "geometry": { "type": "Point", "coordinates": [ 92.96218, 25.206433 ] } },
{ "type": "Feature", "properties": { "STATE_ID": 4, "DISTRICT_I": 378, "BLOCK_ID": 2138, "HAB_ID": 1185575, "FACILITY_I": 905712, "FAC_DESC": "Network Bus Stand", "FAC_CATEGO": "Transport/Admin" }, "geometry": { "type": "Point", "coordinates": [ 93.014938, 25.16054 ] } },
{ "type": "Feature", "properties": { "STATE_ID": 4, "DISTRICT_I": 378, "BLOCK_ID": 2138, "HAB_ID": 1185575, "FACILITY_I": 905780, "FAC_DESC": "Don Bosco Higher Secondary School", "FAC_CATEGO": "Education" }, "geometry": { "type": "Point", "coordinates": [ 93.018331, 25.166111 ] } },
{ "type": "Feature", "properties": { "STATE_ID": 4, "DISTRICT_I": 378, "BLOCK_ID": 2460, "HAB_ID": 792772, "FACILITY_I": 963187, "FAC_DESC": "N.Songkai Market", "FAC_CATEGO": "Agro" }, "geometry": { "type": "Point", "coordinates": [ 93.280931, 25.08833 ] } },
{ "type": "Feature", "properties": { "STATE_ID": 4, "DISTRICT_I": 378, "BLOCK_ID": 1647, "HAB_ID": 385998, "FACILITY_I": 908103, "FAC_DESC": "Gunjung Bazar", "FAC_CATEGO": "Agro" }, "geometry": { "type": "Point", "coordinates": [ 93.007294, 25.323437 ] } },
{ "type": "Feature", "properties": { "STATE_ID": 4, "DISTRICT_I": 378, "BLOCK_ID": 1648, "HAB_ID": 1321682, "FACILITY_I": 894548, "FAC_DESC": "Diyungbra Hataima", "FAC_CATEGO": "Agro" }, "geometry": { "type": "Point", "coordinates": [ 92.936395, 25.799087 ] } },
{ "type": "Feature", "properties": { "STATE_ID": 4, "DISTRICT_I": 378, "BLOCK_ID": 2138, "HAB_ID": 631194, "FACILITY_I": 894599, "FAC_DESC": "State Bank Of India", "FAC_CATEGO": "Transport/Admin" }, "geometry": { "type": "Point", "coordinates": [ 93.015999, 25.169508 ] } },
{ "type": "Feature", "properties": { "STATE_ID": 4, "DISTRICT_I": 378, "BLOCK_ID": 4283, "HAB_ID": 726926, "FACILITY_I": 894267, "FAC_DESC": "Kharthong High School", "FAC_CATEGO": "Education" }, "geometry": { "type": "Point", "coordinates": [ 92.81818, 25.212028 ] } },
{ "type": "Feature", "properties": { "STATE_ID": 4, "DISTRICT_I": 378, "BLOCK_ID": 1648, "HAB_ID": 1185549, "FACILITY_I": 914438, "FAC_DESC": "Bus Stand", "FAC_CATEGO": "Transport/Admin" }, "geometry": { "type": "Point", "coordinates": [ 92.92263, 25.613246 ] } },
{ "type": "Feature", "properties": { "STATE_ID": 4, "DISTRICT_I": 378, "BLOCK_ID": 1647, "HAB_ID": 417102, "FACILITY_I": 864098, "FAC_DESC": "Hatikhali Bazaar", "FAC_CATEGO": "Agro" }, "geometry": { "type": "Point", "coordinates": [ 93.100151, 25.636817 ] } },
{ "type": "Feature", "properties": { "STATE_ID": 4, "DISTRICT_I": 378, "BLOCK_ID": 4283, "HAB_ID": 1073808, "FACILITY_I": 899262, "FAC_DESC": "State Veterinary Dispensary", "FAC_CATEGO": "Medical" }, "geometry": { "type": "Point", "coordinates": [ 92.750977, 25.50511 ] } },
{ "type": "Feature", "properties": { "STATE_ID": 4, "DISTRICT_I": 378, "BLOCK_ID": 2138, "HAB_ID": 470609, "FACILITY_I": 899445, "FAC_DESC": "CHT Synod Higher Secondary School", "FAC_CATEGO": "Education" }, "geometry": { "type": "Point", "coordinates": [ 93.013988, 25.174738 ] } },
{ "type": "Feature", "properties": { "STATE_ID": 4, "DISTRICT_I": 378, "BLOCK_ID": 1647, "HAB_ID": 417102, "FACILITY_I": 918788, "FAC_DESC": "Assam Gramin Vikash Bank Hatikhali Branch", "FAC_CATEGO": "Transport/Admin" }, "geometry": { "type": "Point", "coordinates": [ 93.100228, 25.636836 ] } },
{ "type": "Feature", "properties": { "STATE_ID": 4, "DISTRICT_I": 378, "BLOCK_ID": 2138, "HAB_ID": 1185582, "FACILITY_I": 905734, "FAC_DESC": "Urban Health Centre PH Duty", "FAC_CATEGO": "Medical" }, "geometry": { "type": "Point", "coordinates": [ 93.018024, 25.16833 ] } },
{ "type": "Feature", "properties": { "STATE_ID": 4, "DISTRICT_I": 378, "BLOCK_ID": 2460, "HAB_ID": 959912, "FACILITY_I": 956599, "FAC_DESC": "Saron High School", "FAC_CATEGO": "Education" }, "geometry": { "type": "Point", "coordinates": [ 93.118151, 25.187273 ] } },
{ "type": "Feature", "properties": { "STATE_ID": 4, "DISTRICT_I": 378, "BLOCK_ID": 2460, "HAB_ID": 651215, "FACILITY_I": 956649, "FAC_DESC": "Mahur Mandi", "FAC_CATEGO": "Agro" }, "geometry": { "type": "Point", "coordinates": [ 93.114175, 25.179416 ] } },
{ "type": "Feature", "properties": { "STATE_ID": 4, "DISTRICT_I": 378, "BLOCK_ID": 1648, "HAB_ID": 620667, "FACILITY_I": 918945, "FAC_DESC": "Bus Stand", "FAC_CATEGO": "Transport/Admin" }, "geometry": { "type": "Point", "coordinates": [ 92.908679, 25.730282 ] } },
{ "type": "Feature", "properties": { "STATE_ID": 4, "DISTRICT_I": 378, "BLOCK_ID": 1648, "HAB_ID": 1320419, "FACILITY_I": 947339, "FAC_DESC": "rice Mill", "FAC_CATEGO": "Agro" }, "geometry": { "type": "Point", "coordinates": [ 93.004643, 25.781463 ] } },
{ "type": "Feature", "properties": { "STATE_ID": 4, "DISTRICT_I": 378, "BLOCK_ID": 1647, "HAB_ID": 620712, "FACILITY_I": 917666, "FAC_DESC": "MODEL HOSPITAL LANGTING", "FAC_CATEGO": "Medical" }, "geometry": { "type": "Point", "coordinates": [ 93.119407, 25.510989 ] } },
{ "type": "Feature", "properties": { "STATE_ID": 4, "DISTRICT_I": 378, "BLOCK_ID": 2138, "HAB_ID": 631194, "FACILITY_I": 895574, "FAC_DESC": "Haflong Civil Hospital", "FAC_CATEGO": "Medical" }, "geometry": { "type": "Point", "coordinates": [ 93.011427, 25.181974 ] } },
{ "type": "Feature", "properties": { "STATE_ID": 4, "DISTRICT_I": 378, "BLOCK_ID": 2138, "HAB_ID": 1185582, "FACILITY_I": 895581, "FAC_DESC": "FIANGPUI HIGH SCHOOL", "FAC_CATEGO": "Education" }, "geometry": { "type": "Point", "coordinates": [ 93.001678, 25.171772 ] } },
{ "type": "Feature", "properties": { "STATE_ID": 4, "DISTRICT_I": 378, "BLOCK_ID": 1648, "HAB_ID": 300255, "FACILITY_I": 914408, "FAC_DESC": "Bus Stand", "FAC_CATEGO": "Transport/Admin" }, "geometry": { "type": "Point", "coordinates": [ 92.96568, 25.505652 ] } },
{ "type": "Feature", "properties": { "STATE_ID": 4, "DISTRICT_I": 378, "BLOCK_ID": 4283, "HAB_ID": 1073810, "FACILITY_I": 894295, "FAC_DESC": "Kopili High School", "FAC_CATEGO": "Education" }, "geometry": { "type": "Point", "coordinates": [ 92.729802, 25.507577 ] } },
{ "type": "Feature", "properties": { "STATE_ID": 4, "DISTRICT_I": 378, "BLOCK_ID": 1647, "HAB_ID": 651709, "FACILITY_I": 864236, "FAC_DESC": "Bank of India Maibang", "FAC_CATEGO": "Transport/Admin" }, "geometry": { "type": "Point", "coordinates": [ 93.137551, 25.302763 ] } },
{ "type": "Feature", "properties": { "STATE_ID": 4, "DISTRICT_I": 378, "BLOCK_ID": 1647, "HAB_ID": 554808, "FACILITY_I": 863993, "FAC_DESC": "Khepre PHC", "FAC_CATEGO": "Medical" }, "geometry": { "type": "Point", "coordinates": [ 93.361181, 25.44068 ] } },
{ "type": "Feature", "properties": { "STATE_ID": 4, "DISTRICT_I": 378, "BLOCK_ID": 2460, "HAB_ID": 1318204, "FACILITY_I": 956228, "FAC_DESC": "Hangrum II Bus stand", "FAC_CATEGO": "Transport/Admin" }, "geometry": { "type": "Point", "coordinates": [ 93.304158, 25.146028 ] } },
{ "type": "Feature", "properties": { "STATE_ID": 4, "DISTRICT_I": 378, "BLOCK_ID": 2460, "HAB_ID": 959912, "FACILITY_I": 956628, "FAC_DESC": "Saron Bus stand II", "FAC_CATEGO": "Transport/Admin" }, "geometry": { "type": "Point", "coordinates": [ 93.116257, 25.182906 ] } },
{ "type": "Feature", "properties": { "STATE_ID": 4, "DISTRICT_I": 378, "BLOCK_ID": 2138, "HAB_ID": 1185582, "FACILITY_I": 895595, "FAC_DESC": "GREENWOOD HIGH SCHOOL", "FAC_CATEGO": "Education" }, "geometry": { "type": "Point", "coordinates": [ 93.005395, 25.175006 ] } },
{ "type": "Feature", "properties": { "STATE_ID": 4, "DISTRICT_I": 378, "BLOCK_ID": 2138, "HAB_ID": 1322624, "FACILITY_I": 895610, "FAC_DESC": "NGAIBANTLANG PRESBYTERY HIGH SCHOOL", "FAC_CATEGO": "Education" }, "geometry": { "type": "Point", "coordinates": [ 92.86054, 25.119575 ] } },
{ "type": "Feature", "properties": { "STATE_ID": 4, "DISTRICT_I": 378, "BLOCK_ID": 4283, "HAB_ID": 1317650, "FACILITY_I": 962393, "FAC_DESC": "Dimaraji English School", "FAC_CATEGO": "Education" }, "geometry": { "type": "Point", "coordinates": [ 92.731035, 25.501843 ] } },
{ "type": "Feature", "properties": { "STATE_ID": 4, "DISTRICT_I": 378, "BLOCK_ID": 2460, "HAB_ID": 1065933, "FACILITY_I": 873267, "FAC_DESC": "Tungje Market", "FAC_CATEGO": "Agro" }, "geometry": { "type": "Point", "coordinates": [ 93.371848, 25.249877 ] } },
{ "type": "Feature", "properties": { "STATE_ID": 4, "DISTRICT_I": 378, "BLOCK_ID": 1648, "HAB_ID": 620675, "FACILITY_I": 919073, "FAC_DESC": "Bus Stand", "FAC_CATEGO": "Transport/Admin" }, "geometry": { "type": "Point", "coordinates": [ 92.894955, 25.752121 ] } },
{ "type": "Feature", "properties": { "STATE_ID": 4, "DISTRICT_I": 378, "BLOCK_ID": 1647, "HAB_ID": 417102, "FACILITY_I": 946217, "FAC_DESC": "Hatikhali Bus Stand No. 1", "FAC_CATEGO": "Transport/Admin" }, "geometry": { "type": "Point", "coordinates": [ 93.099939, 25.637447 ] } },
{ "type": "Feature", "properties": { "STATE_ID": 4, "DISTRICT_I": 378, "BLOCK_ID": 4283, "HAB_ID": 257838, "FACILITY_I": 894624, "FAC_DESC": "Dehangi SD", "FAC_CATEGO": "Medical" }, "geometry": { "type": "Point", "coordinates": [ 92.9943, 25.422387 ] } },
{ "type": "Feature", "properties": { "STATE_ID": 4, "DISTRICT_I": 378, "BLOCK_ID": 1648, "HAB_ID": 1042527, "FACILITY_I": 863758, "FAC_DESC": "Thaijuwari Market", "FAC_CATEGO": "Agro" }, "geometry": { "type": "Point", "coordinates": [ 92.970886, 25.569639 ] } },
{ "type": "Feature", "properties": { "STATE_ID": 4, "DISTRICT_I": 378, "BLOCK_ID": 1648, "HAB_ID": 774630, "FACILITY_I": 947333, "FAC_DESC": "rice mill", "FAC_CATEGO": "Agro" }, "geometry": { "type": "Point", "coordinates": [ 93.049639, 25.781915 ] } },
{ "type": "Feature", "properties": { "STATE_ID": 4, "DISTRICT_I": 378, "BLOCK_ID": 1648, "HAB_ID": 888343, "FACILITY_I": 947338, "FAC_DESC": "rice Mill", "FAC_CATEGO": "Agro" }, "geometry": { "type": "Point", "coordinates": [ 93.012063, 25.783797 ] } },
{ "type": "Feature", "properties": { "STATE_ID": 4, "DISTRICT_I": 378, "BLOCK_ID": 2138, "HAB_ID": 470609, "FACILITY_I": 905692, "FAC_DESC": "Central Bank Of India", "FAC_CATEGO": "Transport/Admin" }, "geometry": { "type": "Point", "coordinates": [ 93.015649, 25.171382 ] } },
{ "type": "Feature", "properties": { "STATE_ID": 4, "DISTRICT_I": 378, "BLOCK_ID": 2138, "HAB_ID": 457246, "FACILITY_I": 905726, "FAC_DESC": "Jatinga Bus Stand", "FAC_CATEGO": "Transport/Admin" }, "geometry": { "type": "Point", "coordinates": [ 93.017631, 25.132941 ] } },
{ "type": "Feature", "properties": { "STATE_ID": 4, "DISTRICT_I": 378, "BLOCK_ID": 2138, "HAB_ID": 1185582, "FACILITY_I": 905783, "FAC_DESC": "St Agnes Higher Secondary School", "FAC_CATEGO": "Education" }, "geometry": { "type": "Point", "coordinates": [ 93.0122, 25.168181 ] } },
{ "type": "Feature", "properties": { "STATE_ID": 4, "DISTRICT_I": 378, "BLOCK_ID": 2138, "HAB_ID": 631194, "FACILITY_I": 894394, "FAC_DESC": "ICICI Bank", "FAC_CATEGO": "Transport/Admin" }, "geometry": { "type": "Point", "coordinates": [ 93.018595, 25.167893 ] } },
{ "type": "Feature", "properties": { "STATE_ID": 4, "DISTRICT_I": 378, "BLOCK_ID": 4283, "HAB_ID": 558346, "FACILITY_I": 894530, "FAC_DESC": "Khobak Weekly Market", "FAC_CATEGO": "Agro" }, "geometry": { "type": "Point", "coordinates": [ 92.804083, 25.284087 ] } },
{ "type": "Feature", "properties": { "STATE_ID": 4, "DISTRICT_I": 378, "BLOCK_ID": 1647, "HAB_ID": 1042526, "FACILITY_I": 908100, "FAC_DESC": "Thaijuphang Bus Stand", "FAC_CATEGO": "Transport/Admin" }, "geometry": { "type": "Point", "coordinates": [ 92.986603, 25.391679 ] } },
{ "type": "Feature", "properties": { "STATE_ID": 4, "DISTRICT_I": 378, "BLOCK_ID": 1647, "HAB_ID": 651709, "FACILITY_I": 864171, "FAC_DESC": "Maibang", "FAC_CATEGO": "Transport/Admin" }, "geometry": { "type": "Point", "coordinates": [ 93.138102, 25.302189 ] } },
{ "type": "Feature", "properties": { "STATE_ID": 4, "DISTRICT_I": 378, "BLOCK_ID": 2460, "HAB_ID": 922476, "FACILITY_I": 956670, "FAC_DESC": "Riao Bus Stand", "FAC_CATEGO": "Transport/Admin" }, "geometry": { "type": "Point", "coordinates": [ 93.033395, 25.231487 ] } },
{ "type": "Feature", "properties": { "STATE_ID": 4, "DISTRICT_I": 378, "BLOCK_ID": 2138, "HAB_ID": 921944, "FACILITY_I": 895602, "FAC_DESC": "RETZAWL HIGH SCHOOL", "FAC_CATEGO": "Education" }, "geometry": { "type": "Point", "coordinates": [ 92.985806, 25.106876 ] } },
{ "type": "Feature", "properties": { "STATE_ID": 4, "DISTRICT_I": 378, "BLOCK_ID": 4283, "HAB_ID": 586005, "FACILITY_I": 922825, "FAC_DESC": "Khutlir Bus Stand", "FAC_CATEGO": "Transport/Admin" }, "geometry": { "type": "Point", "coordinates": [ 92.805662, 25.236967 ] } },
{ "type": "Feature", "properties": { "STATE_ID": 4, "DISTRICT_I": 378, "BLOCK_ID": 1647, "HAB_ID": 302078, "FACILITY_I": 926890, "FAC_DESC": "Maibang CHC", "FAC_CATEGO": "Medical" }, "geometry": { "type": "Point", "coordinates": [ 93.136631, 25.297998 ] } },
{ "type": "Feature", "properties": { "STATE_ID": 4, "DISTRICT_I": 378, "BLOCK_ID": 1647, "HAB_ID": 620711, "FACILITY_I": 864001, "FAC_DESC": "Langting BPHC", "FAC_CATEGO": "Medical" }, "geometry": { "type": "Point", "coordinates": [ 93.116719, 25.497417 ] } },
{ "type": "Feature", "properties": { "STATE_ID": 4, "DISTRICT_I": 378, "BLOCK_ID": 1647, "HAB_ID": 788015, "FACILITY_I": 864165, "FAC_DESC": "Nablaidisa Bazaar", "FAC_CATEGO": "Agro" }, "geometry": { "type": "Point", "coordinates": [ 93.267814, 25.379902 ] } },
{ "type": "Feature", "properties": { "STATE_ID": 4, "DISTRICT_I": 378, "BLOCK_ID": 4283, "HAB_ID": 949219, "FACILITY_I": 894332, "FAC_DESC": "New Sangbar High School", "FAC_CATEGO": "Education" }, "geometry": { "type": "Point", "coordinates": [ 92.795643, 25.4133 ] } },
{ "type": "Feature", "properties": { "STATE_ID": 4, "DISTRICT_I": 378, "BLOCK_ID": 4283, "HAB_ID": 1073810, "FACILITY_I": 894366, "FAC_DESC": "JB Hagjer Junior College", "FAC_CATEGO": "Education" }, "geometry": { "type": "Point", "coordinates": [ 92.732692, 25.508102 ] } },
{ "type": "Feature", "properties": { "STATE_ID": 4, "DISTRICT_I": 378, "BLOCK_ID": 2460, "HAB_ID": 959912, "FACILITY_I": 862680, "FAC_DESC": "Mahur HS School", "FAC_CATEGO": "Education" }, "geometry": { "type": "Point", "coordinates": [ 93.116648, 25.182725 ] } },
{ "type": "Feature", "properties": { "STATE_ID": 4, "DISTRICT_I": 378, "BLOCK_ID": 2460, "HAB_ID": 922461, "FACILITY_I": 954918, "FAC_DESC": "Riam Bathari Bus stand", "FAC_CATEGO": "Transport/Admin" }, "geometry": { "type": "Point", "coordinates": [ 93.044379, 25.217121 ] } },
{ "type": "Feature", "properties": { "STATE_ID": 4, "DISTRICT_I": 378, "BLOCK_ID": 1648, "HAB_ID": 233423, "FACILITY_I": 918997, "FAC_DESC": "Bus Stand", "FAC_CATEGO": "Transport/Admin" }, "geometry": { "type": "Point", "coordinates": [ 92.927493, 25.759418 ] } },
{ "type": "Feature", "properties": { "STATE_ID": 4, "DISTRICT_I": 378, "BLOCK_ID": 2138, "HAB_ID": 631194, "FACILITY_I": 905718, "FAC_DESC": "ASTC Bus Stand", "FAC_CATEGO": "Transport/Admin" }, "geometry": { "type": "Point", "coordinates": [ 93.012947, 25.179089 ] } },
{ "type": "Feature", "properties": { "STATE_ID": 4, "DISTRICT_I": 378, "BLOCK_ID": 2138, "HAB_ID": 1185575, "FACILITY_I": 905736, "FAC_DESC": "GC Langthasa High School", "FAC_CATEGO": "Education" }, "geometry": { "type": "Point", "coordinates": [ 93.017545, 25.156345 ] } },
{ "type": "Feature", "properties": { "STATE_ID": 4, "DISTRICT_I": 378, "BLOCK_ID": 2138, "HAB_ID": 631194, "FACILITY_I": 905786, "FAC_DESC": "Muolhoi High School", "FAC_CATEGO": "Education" }, "geometry": { "type": "Point", "coordinates": [ 93.020167, 25.178091 ] } },
{ "type": "Feature", "properties": { "STATE_ID": 4, "DISTRICT_I": 378, "BLOCK_ID": 1647, "HAB_ID": 337265, "FACILITY_I": 908097, "FAC_DESC": "Gajo Bus Stand", "FAC_CATEGO": "Transport/Admin" }, "geometry": { "type": "Point", "coordinates": [ 92.991075, 25.342495 ] } },
{ "type": "Feature", "properties": { "STATE_ID": 4, "DISTRICT_I": 378, "BLOCK_ID": 4283, "HAB_ID": 824525, "FACILITY_I": 931272, "FAC_DESC": "P.  Dikongma Bus Stand", "FAC_CATEGO": "Transport/Admin" }, "geometry": { "type": "Point", "coordinates": [ 92.953025, 25.43855 ] } },
{ "type": "Feature", "properties": { "STATE_ID": 4, "DISTRICT_I": 378, "BLOCK_ID": 2460, "HAB_ID": 424543, "FACILITY_I": 954343, "FAC_DESC": "Hojai Kasiba Mandi", "FAC_CATEGO": "Agro" }, "geometry": { "type": "Point", "coordinates": [ 93.017376, 25.215789 ] } },
{ "type": "Feature", "properties": { "STATE_ID": 4, "DISTRICT_I": 378, "BLOCK_ID": 4283, "HAB_ID": 1185627, "FACILITY_I": 894329, "FAC_DESC": "Smti Jamuna Devi Saraswati Vidya Mandir", "FAC_CATEGO": "Education" }, "geometry": { "type": "Point", "coordinates": [ 92.762675, 25.508882 ] } },
{ "type": "Feature", "properties": { "STATE_ID": 4, "DISTRICT_I": 378, "BLOCK_ID": 1648, "HAB_ID": 1042527, "FACILITY_I": 914424, "FAC_DESC": "Bus Stand", "FAC_CATEGO": "Transport/Admin" }, "geometry": { "type": "Point", "coordinates": [ 92.971028, 25.569452 ] } },
{ "type": "Feature", "properties": { "STATE_ID": 4, "DISTRICT_I": 378, "BLOCK_ID": 1647, "HAB_ID": 620712, "FACILITY_I": 863577, "FAC_DESC": "LANGTING HIGH SCHOOL", "FAC_CATEGO": "Education" }, "geometry": { "type": "Point", "coordinates": [ 93.11575, 25.499756 ] } },
{ "type": "Feature", "properties": { "STATE_ID": 4, "DISTRICT_I": 378, "BLOCK_ID": 1647, "HAB_ID": 300243, "FACILITY_I": 863684, "FAC_DESC": "Loyola  High School", "FAC_CATEGO": "Education" }, "geometry": { "type": "Point", "coordinates": [ 93.276693, 25.364246 ] } },
{ "type": "Feature", "properties": { "STATE_ID": 4, "DISTRICT_I": 378, "BLOCK_ID": 2138, "HAB_ID": 457246, "FACILITY_I": 897119, "FAC_DESC": "Rani Gaidinliu Memorial Junior College", "FAC_CATEGO": "Education" }, "geometry": { "type": "Point", "coordinates": [ 93.021461, 25.14287 ] } },
{ "type": "Feature", "properties": { "STATE_ID": 4, "DISTRICT_I": 378, "BLOCK_ID": 2460, "HAB_ID": 233369, "FACILITY_I": 954871, "FAC_DESC": "Choto Wapu Bus stand", "FAC_CATEGO": "Transport/Admin" }, "geometry": { "type": "Point", "coordinates": [ 93.024927, 25.265774 ] } },
{ "type": "Feature", "properties": { "STATE_ID": 4, "DISTRICT_I": 378, "BLOCK_ID": 2138, "HAB_ID": 470609, "FACILITY_I": 905804, "FAC_DESC": "Sarkari Bagan Weekly Market", "FAC_CATEGO": "Agro" }, "geometry": { "type": "Point", "coordinates": [ 93.014218, 25.183662 ] } },
{ "type": "Feature", "properties": { "STATE_ID": 4, "DISTRICT_I": 378, "BLOCK_ID": 1648, "HAB_ID": 177731, "FACILITY_I": 894308, "FAC_DESC": "JB Hagjer Degree College", "FAC_CATEGO": "Education" }, "geometry": { "type": "Point", "coordinates": [ 92.934816, 25.792745 ] } },
{ "type": "Feature", "properties": { "STATE_ID": 4, "DISTRICT_I": 378, "BLOCK_ID": 4283, "HAB_ID": 949219, "FACILITY_I": 894507, "FAC_DESC": "New Sangbar Market", "FAC_CATEGO": "Agro" }, "geometry": { "type": "Point", "coordinates": [ 92.7947, 25.414968 ] } },
{ "type": "Feature", "properties": { "STATE_ID": 4, "DISTRICT_I": 378, "BLOCK_ID": 1648, "HAB_ID": 621241, "FACILITY_I": 914445, "FAC_DESC": "Bus Stand", "FAC_CATEGO": "Transport/Admin" }, "geometry": { "type": "Point", "coordinates": [ 92.919044, 25.648203 ] } },
{ "type": "Feature", "properties": { "STATE_ID": 4, "DISTRICT_I": 378, "BLOCK_ID": 4283, "HAB_ID": 234948, "FACILITY_I": 931526, "FAC_DESC": "Bangphiri Bus Stand", "FAC_CATEGO": "Transport/Admin" }, "geometry": { "type": "Point", "coordinates": [ 92.803413, 25.417672 ] } },
{ "type": "Feature", "properties": { "STATE_ID": 4, "DISTRICT_I": 378, "BLOCK_ID": 2460, "HAB_ID": 431859, "FACILITY_I": 957161, "FAC_DESC": "Impoi Christian Bus Stand", "FAC_CATEGO": "Transport/Admin" }, "geometry": { "type": "Point", "coordinates": [ 93.189182, 25.186744 ] } },
{ "type": "Feature", "properties": { "STATE_ID": 4, "DISTRICT_I": 378, "BLOCK_ID": 2460, "HAB_ID": 558397, "FACILITY_I": 870158, "FAC_DESC": "Trinity High School", "FAC_CATEGO": "Education" }, "geometry": { "type": "Point", "coordinates": [ 93.114495, 25.176527 ] } },
{ "type": "Feature", "properties": { "STATE_ID": 4, "DISTRICT_I": 378, "BLOCK_ID": 2138, "HAB_ID": 631194, "FACILITY_I": 895626, "FAC_DESC": "SENGYA SAMBHUDHAN JUNIOR COLLEGE", "FAC_CATEGO": "Education" }, "geometry": { "type": "Point", "coordinates": [ 93.014503, 25.182197 ] } },
{ "type": "Feature", "properties": { "STATE_ID": 4, "DISTRICT_I": 378, "BLOCK_ID": 4283, "HAB_ID": 1317565, "FACILITY_I": 943644, "FAC_DESC": "Kopili Tea Estate", "FAC_CATEGO": "Agro" }, "geometry": { "type": "Point", "coordinates": [ 92.781355, 25.495802 ] } },
{ "type": "Feature", "properties": { "STATE_ID": 4, "DISTRICT_I": 378, "BLOCK_ID": 1648, "HAB_ID": 46521, "FACILITY_I": 920239, "FAC_DESC": "Sugar cane Processing Unit", "FAC_CATEGO": "Agro" }, "geometry": { "type": "Point", "coordinates": [ 92.906117, 25.71062 ] } },
{ "type": "Feature", "properties": { "STATE_ID": 4, "DISTRICT_I": 378, "BLOCK_ID": 2138, "HAB_ID": 631194, "FACILITY_I": 895605, "FAC_DESC": "COVENENT HIGH SCHOOL", "FAC_CATEGO": "Education" }, "geometry": { "type": "Point", "coordinates": [ 93.013798, 25.195603 ] } },
{ "type": "Feature", "properties": { "STATE_ID": 4, "DISTRICT_I": 378, "BLOCK_ID": 2460, "HAB_ID": 651215, "FACILITY_I": 956641, "FAC_DESC": "Step By Step High school", "FAC_CATEGO": "Education" }, "geometry": { "type": "Point", "coordinates": [ 93.115633, 25.178502 ] } },
{ "type": "Feature", "properties": { "STATE_ID": 4, "DISTRICT_I": 378, "BLOCK_ID": 1647, "HAB_ID": 736112, "FACILITY_I": 864189, "FAC_DESC": "Naya Bathari", "FAC_CATEGO": "Transport/Admin" }, "geometry": { "type": "Point", "coordinates": [ 93.176137, 25.35307 ] } },
{ "type": "Feature", "properties": { "STATE_ID": 4, "DISTRICT_I": 378, "BLOCK_ID": 1647, "HAB_ID": 302078, "FACILITY_I": 864228, "FAC_DESC": "Dihur Phonglo", "FAC_CATEGO": "Transport/Admin" }, "geometry": { "type": "Point", "coordinates": [ 93.136343, 25.29746 ] } },
{ "type": "Feature", "properties": { "STATE_ID": 4, "DISTRICT_I": 378, "BLOCK_ID": 1647, "HAB_ID": 361539, "FACILITY_I": 863687, "FAC_DESC": "St Xavier School", "FAC_CATEGO": "Education" }, "geometry": { "type": "Point", "coordinates": [ 93.14487, 25.301222 ] } },
{ "type": "Feature", "properties": { "STATE_ID": 4, "DISTRICT_I": 378, "BLOCK_ID": 1647, "HAB_ID": 738960, "FACILITY_I": 863585, "FAC_DESC": "NOBDILANGTING HIGH SCHOOL", "FAC_CATEGO": "Education" }, "geometry": { "type": "Point", "coordinates": [ 93.289395, 25.400131 ] } },
{ "type": "Feature", "properties": { "STATE_ID": 4, "DISTRICT_I": 378, "BLOCK_ID": 4283, "HAB_ID": 558346, "FACILITY_I": 922822, "FAC_DESC": "Khobak Bus Stand", "FAC_CATEGO": "Transport/Admin" }, "geometry": { "type": "Point", "coordinates": [ 92.804638, 25.284142 ] } },
{ "type": "Feature", "properties": { "STATE_ID": 4, "DISTRICT_I": 378, "BLOCK_ID": 4283, "HAB_ID": 1050749, "FACILITY_I": 894337, "FAC_DESC": "Thingdol High School", "FAC_CATEGO": "Education" }, "geometry": { "type": "Point", "coordinates": [ 92.911305, 25.333052 ] } },
{ "type": "Feature", "properties": { "STATE_ID": 4, "DISTRICT_I": 378, "BLOCK_ID": 2138, "HAB_ID": 1185575, "FACILITY_I": 962751, "FAC_DESC": "JATINGA SD", "FAC_CATEGO": "Medical" }, "geometry": { "type": "Point", "coordinates": [ 93.024984, 25.127327 ] } },
{ "type": "Feature", "properties": { "STATE_ID": 4, "DISTRICT_I": 378, "BLOCK_ID": 1647, "HAB_ID": 300249, "FACILITY_I": 946209, "FAC_DESC": "Didaoka Bus Stand", "FAC_CATEGO": "Transport/Admin" }, "geometry": { "type": "Point", "coordinates": [ 93.127611, 25.375333 ] } },
{ "type": "Feature", "properties": { "STATE_ID": 4, "DISTRICT_I": 378, "BLOCK_ID": 1648, "HAB_ID": 631198, "FACILITY_I": 878540, "FAC_DESC": "Lonku High School", "FAC_CATEGO": "Education" }, "geometry": { "type": "Point", "coordinates": [ 92.799159, 25.670021 ] } },
{ "type": "Feature", "properties": { "STATE_ID": 4, "DISTRICT_I": 378, "BLOCK_ID": 4283, "HAB_ID": 1073810, "FACILITY_I": 894431, "FAC_DESC": "Umranso Community Health Centre", "FAC_CATEGO": "Medical" }, "geometry": { "type": "Point", "coordinates": [ 92.732588, 25.505432 ] } },
{ "type": "Feature", "properties": { "STATE_ID": 4, "DISTRICT_I": 378, "BLOCK_ID": 2138, "HAB_ID": 1185582, "FACILITY_I": 894499, "FAC_DESC": "United Bank Of India", "FAC_CATEGO": "Transport/Admin" }, "geometry": { "type": "Point", "coordinates": [ 93.015886, 25.169739 ] } },
{ "type": "Feature", "properties": { "STATE_ID": 4, "DISTRICT_I": 378, "BLOCK_ID": 1647, "HAB_ID": 385998, "FACILITY_I": 908105, "FAC_DESC": "Gunjung Govt High School", "FAC_CATEGO": "Education" }, "geometry": { "type": "Point", "coordinates": [ 93.012334, 25.319742 ] } },
{ "type": "Feature", "properties": { "STATE_ID": 4, "DISTRICT_I": 378, "BLOCK_ID": 4283, "HAB_ID": 234964, "FACILITY_I": 931518, "FAC_DESC": "Ch. Langlut Bus Stand", "FAC_CATEGO": "Transport/Admin" }, "geometry": { "type": "Point", "coordinates": [ 92.82405, 25.41171 ] } },
{ "type": "Feature", "properties": { "STATE_ID": 4, "DISTRICT_I": 378, "BLOCK_ID": 1647, "HAB_ID": 245749, "FACILITY_I": 863666, "FAC_DESC": "Pramavananda Vidya Mandir High School", "FAC_CATEGO": "Education" }, "geometry": { "type": "Point", "coordinates": [ 93.134251, 25.302664 ] } },
{ "type": "Feature", "properties": { "STATE_ID": 4, "DISTRICT_I": 378, "BLOCK_ID": 2138, "HAB_ID": 1185575, "FACILITY_I": 894316, "FAC_DESC": "JSBR Dey Gas Station", "FAC_CATEGO": "Transport/Admin" }, "geometry": { "type": "Point", "coordinates": [ 93.017601, 25.160134 ] } },
{ "type": "Feature", "properties": { "STATE_ID": 4, "DISTRICT_I": 378, "BLOCK_ID": 1647, "HAB_ID": 1323540, "FACILITY_I": 927272, "FAC_DESC": "Sainja Valley Residential High School", "FAC_CATEGO": "Education" }, "geometry": { "type": "Point", "coordinates": [ 93.144366, 25.295849 ] } },
{ "type": "Feature", "properties": { "STATE_ID": 4, "DISTRICT_I": 378, "BLOCK_ID": 2460, "HAB_ID": 304083, "FACILITY_I": 954897, "FAC_DESC": "Disagutu Bus stand", "FAC_CATEGO": "Transport/Admin" }, "geometry": { "type": "Point", "coordinates": [ 93.015843, 25.275052 ] } },
{ "type": "Feature", "properties": { "STATE_ID": 4, "DISTRICT_I": 378, "BLOCK_ID": 4283, "HAB_ID": 1317650, "FACILITY_I": 898894, "FAC_DESC": "JB Hagjer Degree College", "FAC_CATEGO": "Education" }, "geometry": { "type": "Point", "coordinates": [ 92.732613, 25.500345 ] } },
{ "type": "Feature", "properties": { "STATE_ID": 4, "DISTRICT_I": 378, "BLOCK_ID": 2138, "HAB_ID": 631194, "FACILITY_I": 895584, "FAC_DESC": "LOWER HAFLONG HIGH SCHOOL", "FAC_CATEGO": "Education" }, "geometry": { "type": "Point", "coordinates": [ 93.019405, 25.19112 ] } },
{ "type": "Feature", "properties": { "STATE_ID": 4, "DISTRICT_I": 378, "BLOCK_ID": 1648, "HAB_ID": 789926, "FACILITY_I": 863711, "FAC_DESC": "Thaijuwari High School", "FAC_CATEGO": "Education" }, "geometry": { "type": "Point", "coordinates": [ 92.970656, 25.563601 ] } },
{ "type": "Feature", "properties": { "STATE_ID": 4, "DISTRICT_I": 378, "BLOCK_ID": 2460, "HAB_ID": 48053, "FACILITY_I": 957160, "FAC_DESC": "Asalu Bus Waiting Shed", "FAC_CATEGO": "Transport/Admin" }, "geometry": { "type": "Point", "coordinates": [ 93.179071, 25.186211 ] } },
{ "type": "Feature", "properties": { "STATE_ID": 4, "DISTRICT_I": 378, "BLOCK_ID": 2138, "HAB_ID": 304192, "FACILITY_I": 895549, "FAC_DESC": "Ditokcherra Weekly Market", "FAC_CATEGO": "Agro" }, "geometry": { "type": "Point", "coordinates": [ 92.803531, 25.091679 ] } },
{ "type": "Feature", "properties": { "STATE_ID": 4, "DISTRICT_I": 378, "BLOCK_ID": 2138, "HAB_ID": 1322434, "FACILITY_I": 895563, "FAC_DESC": "State Vety Dispensary", "FAC_CATEGO": "Medical" }, "geometry": { "type": "Point", "coordinates": [ 92.853667, 25.1137 ] } },
{ "type": "Feature", "properties": { "STATE_ID": 4, "DISTRICT_I": 378, "BLOCK_ID": 1648, "HAB_ID": 1321682, "FACILITY_I": 894577, "FAC_DESC": "Assam Gramin Bikash Bank", "FAC_CATEGO": "Transport/Admin" }, "geometry": { "type": "Point", "coordinates": [ 92.938316, 25.802486 ] } },
{ "type": "Feature", "properties": { "STATE_ID": 4, "DISTRICT_I": 378, "BLOCK_ID": 1647, "HAB_ID": 738960, "FACILITY_I": 864204, "FAC_DESC": "Nobdi Langting", "FAC_CATEGO": "Transport/Admin" }, "geometry": { "type": "Point", "coordinates": [ 93.286801, 25.41347 ] } },
{ "type": "Feature", "properties": { "STATE_ID": 4, "DISTRICT_I": 378, "BLOCK_ID": 2138, "HAB_ID": 470609, "FACILITY_I": 898614, "FAC_DESC": "Assam Co Operative Apex Bank Ltd", "FAC_CATEGO": "Transport/Admin" }, "geometry": { "type": "Point", "coordinates": [ 93.0159, 25.171584 ] } },
{ "type": "Feature", "properties": { "STATE_ID": 4, "DISTRICT_I": 378, "BLOCK_ID": 2460, "HAB_ID": 922476, "FACILITY_I": 954923, "FAC_DESC": "Riao Bus stand", "FAC_CATEGO": "Transport/Admin" }, "geometry": { "type": "Point", "coordinates": [ 93.037925, 25.229768 ] } },
{ "type": "Feature", "properties": { "STATE_ID": 4, "DISTRICT_I": 378, "BLOCK_ID": 1648, "HAB_ID": 774630, "FACILITY_I": 947335, "FAC_DESC": "nayapur", "FAC_CATEGO": "Transport/Admin" }, "geometry": { "type": "Point", "coordinates": [ 93.032349, 25.786449 ] } },
{ "type": "Feature", "properties": { "STATE_ID": 4, "DISTRICT_I": 378, "BLOCK_ID": 1647, "HAB_ID": 177695, "FACILITY_I": 946214, "FAC_DESC": "Boro Lalbong Bus Stand", "FAC_CATEGO": "Transport/Admin" }, "geometry": { "type": "Point", "coordinates": [ 93.102122, 25.546344 ] } },
{ "type": "Feature", "properties": { "STATE_ID": 4, "DISTRICT_I": 378, "BLOCK_ID": 1648, "HAB_ID": 1321297, "FACILITY_I": 919092, "FAC_DESC": "Bus Stand", "FAC_CATEGO": "Transport/Admin" }, "geometry": { "type": "Point", "coordinates": [ 92.843681, 25.736935 ] } },
{ "type": "Feature", "properties": { "STATE_ID": 4, "DISTRICT_I": 378, "BLOCK_ID": 1648, "HAB_ID": 233422, "FACILITY_I": 918992, "FAC_DESC": "Bus Stand", "FAC_CATEGO": "Transport/Admin" }, "geometry": { "type": "Point", "coordinates": [ 92.914935, 25.757246 ] } },
{ "type": "Feature", "properties": { "STATE_ID": 4, "DISTRICT_I": 378, "BLOCK_ID": 2138, "HAB_ID": 1185575, "FACILITY_I": 905723, "FAC_DESC": "Council Bus Stand", "FAC_CATEGO": "Transport/Admin" }, "geometry": { "type": "Point", "coordinates": [ 93.017484, 25.161478 ] } },
{ "type": "Feature", "properties": { "STATE_ID": 4, "DISTRICT_I": 378, "BLOCK_ID": 2460, "HAB_ID": 651215, "FACILITY_I": 956646, "FAC_DESC": "Assam Gramin Vikash Bank", "FAC_CATEGO": "Transport/Admin" }, "geometry": { "type": "Point", "coordinates": [ 93.115156, 25.178953 ] } },
{ "type": "Feature", "properties": { "STATE_ID": 4, "DISTRICT_I": 378, "BLOCK_ID": 2138, "HAB_ID": 1322550, "FACILITY_I": 894642, "FAC_DESC": "Harangajao Block Headquarter", "FAC_CATEGO": "Transport/Admin" }, "geometry": { "type": "Point", "coordinates": [ 92.853487, 25.107729 ] } },
{ "type": "Feature", "properties": { "STATE_ID": 4, "DISTRICT_I": 378, "BLOCK_ID": 1648, "HAB_ID": 712267, "FACILITY_I": 914411, "FAC_DESC": "Bus Stand", "FAC_CATEGO": "Transport/Admin" }, "geometry": { "type": "Point", "coordinates": [ 92.974525, 25.545764 ] } },
{ "type": "Feature", "properties": { "STATE_ID": 4, "DISTRICT_I": 378, "BLOCK_ID": 1647, "HAB_ID": 1321092, "FACILITY_I": 863939, "FAC_DESC": "St Xavier School", "FAC_CATEGO": "Education" }, "geometry": { "type": "Point", "coordinates": [ 93.145565, 25.351405 ] } },
{ "type": "Feature", "properties": { "STATE_ID": 4, "DISTRICT_I": 378, "BLOCK_ID": 2460, "HAB_ID": 651215, "FACILITY_I": 863339, "FAC_DESC": "Jatinga Valley Development Block", "FAC_CATEGO": "Transport/Admin" }, "geometry": { "type": "Point", "coordinates": [ 93.111078, 25.180314 ] } },
{ "type": "Feature", "properties": { "STATE_ID": 4, "DISTRICT_I": 378, "BLOCK_ID": 2460, "HAB_ID": 819065, "FACILITY_I": 862639, "FAC_DESC": "Pangmol High School", "FAC_CATEGO": "Education" }, "geometry": { "type": "Point", "coordinates": [ 93.156472, 25.169591 ] } },
{ "type": "Feature", "properties": { "STATE_ID": 4, "DISTRICT_I": 378, "BLOCK_ID": 1647, "HAB_ID": 385998, "FACILITY_I": 908095, "FAC_DESC": "Gunjung Bus Stand", "FAC_CATEGO": "Transport/Admin" }, "geometry": { "type": "Point", "coordinates": [ 93.010281, 25.316868 ] } },
{ "type": "Feature", "properties": { "STATE_ID": 4, "DISTRICT_I": 378, "BLOCK_ID": 2460, "HAB_ID": 613745, "FACILITY_I": 873264, "FAC_DESC": "Laisong Mandi", "FAC_CATEGO": "Agro" }, "geometry": { "type": "Point", "coordinates": [ 93.371827, 25.249883 ] } },
{ "type": "Feature", "properties": { "STATE_ID": 4, "DISTRICT_I": 378, "BLOCK_ID": 1648, "HAB_ID": 669095, "FACILITY_I": 920234, "FAC_DESC": "Sugar cane processing  unit", "FAC_CATEGO": "Agro" }, "geometry": { "type": "Point", "coordinates": [ 92.933831, 25.781116 ] } },
{ "type": "Feature", "properties": { "STATE_ID": 4, "DISTRICT_I": 378, "BLOCK_ID": 2138, "HAB_ID": 1185575, "FACILITY_I": 895598, "FAC_DESC": "VIVEKANANDA VIDYALAYA HIGH SCHOOL", "FAC_CATEGO": "Education" }, "geometry": { "type": "Point", "coordinates": [ 93.012566, 25.161355 ] } },
{ "type": "Feature", "properties": { "STATE_ID": 4, "DISTRICT_I": 378, "BLOCK_ID": 1647, "HAB_ID": 554288, "FACILITY_I": 863569, "FAC_DESC": "KALACHAND HIGH SCHOOL", "FAC_CATEGO": "Education" }, "geometry": { "type": "Point", "coordinates": [ 93.132392, 25.342718 ] } },
{ "type": "Feature", "properties": { "STATE_ID": 4, "DISTRICT_I": 378, "BLOCK_ID": 1647, "HAB_ID": 620712, "FACILITY_I": 863576, "FAC_DESC": "LANGTING HASIN HIGH SCHOOL", "FAC_CATEGO": "Education" }, "geometry": { "type": "Point", "coordinates": [ 93.117456, 25.504661 ] } },
{ "type": "Feature", "properties": { "STATE_ID": 4, "DISTRICT_I": 378, "BLOCK_ID": 1647, "HAB_ID": 651709, "FACILITY_I": 864239, "FAC_DESC": "Assam Gramin Vikash Bank Maibang", "FAC_CATEGO": "Transport/Admin" }, "geometry": { "type": "Point", "coordinates": [ 93.137996, 25.302176 ] } },
{ "type": "Feature", "properties": { "STATE_ID": 4, "DISTRICT_I": 378, "BLOCK_ID": 2460, "HAB_ID": 177607, "FACILITY_I": 862497, "FAC_DESC": "Boro Arkap High School", "FAC_CATEGO": "Education" }, "geometry": { "type": "Point", "coordinates": [ 93.190983, 25.030502 ] } },
{ "type": "Feature", "properties": { "STATE_ID": 4, "DISTRICT_I": 378, "BLOCK_ID": 4283, "HAB_ID": 363857, "FACILITY_I": 908532, "FAC_DESC": "Himalayan Academy", "FAC_CATEGO": "Education" }, "geometry": { "type": "Point", "coordinates": [ 92.723658, 25.486813 ] } },
{ "type": "Feature", "properties": { "STATE_ID": 4, "DISTRICT_I": 378, "BLOCK_ID": 2138, "HAB_ID": 1185582, "FACILITY_I": 905760, "FAC_DESC": "Dibarai High School", "FAC_CATEGO": "Education" }, "geometry": { "type": "Point", "coordinates": [ 93.008512, 25.171632 ] } },
{ "type": "Feature", "properties": { "STATE_ID": 4, "DISTRICT_I": 378, "BLOCK_ID": 2460, "HAB_ID": 249636, "FACILITY_I": 870162, "FAC_DESC": "Don Bosco School", "FAC_CATEGO": "Education" }, "geometry": { "type": "Point", "coordinates": [ 93.10835, 25.179678 ] } },
{ "type": "Feature", "properties": { "STATE_ID": 4, "DISTRICT_I": 378, "BLOCK_ID": 1648, "HAB_ID": 872567, "FACILITY_I": 914441, "FAC_DESC": "Bus Stand", "FAC_CATEGO": "Transport/Admin" }, "geometry": { "type": "Point", "coordinates": [ 92.911816, 25.636815 ] } },
{ "type": "Feature", "properties": { "STATE_ID": 4, "DISTRICT_I": 378, "BLOCK_ID": 2460, "HAB_ID": 613746, "FACILITY_I": 956251, "FAC_DESC": "Laisong Bagan Bus stand", "FAC_CATEGO": "Transport/Admin" }, "geometry": { "type": "Point", "coordinates": [ 93.353262, 25.235312 ] } },
{ "type": "Feature", "properties": { "STATE_ID": 4, "DISTRICT_I": 378, "BLOCK_ID": 4283, "HAB_ID": 257838, "FACILITY_I": 908553, "FAC_DESC": "Dehangi High School", "FAC_CATEGO": "Education" }, "geometry": { "type": "Point", "coordinates": [ 92.995858, 25.426378 ] } },
{ "type": "Feature", "properties": { "STATE_ID": 4, "DISTRICT_I": 378, "BLOCK_ID": 2460, "HAB_ID": 625180, "FACILITY_I": 862546, "FAC_DESC": "Leiri High School", "FAC_CATEGO": "Education" }, "geometry": { "type": "Point", "coordinates": [ 93.240517, 25.065205 ] } },
{ "type": "Feature", "properties": { "STATE_ID": 4, "DISTRICT_I": 378, "BLOCK_ID": 2460, "HAB_ID": 1006494, "FACILITY_I": 862597, "FAC_DESC": "Songbung High School", "FAC_CATEGO": "Education" }, "geometry": { "type": "Point", "coordinates": [ 93.108223, 25.185313 ] } },
{ "type": "Feature", "properties": { "STATE_ID": 4, "DISTRICT_I": 378, "BLOCK_ID": 2138, "HAB_ID": 470609, "FACILITY_I": 905730, "FAC_DESC": "FCI Godown", "FAC_CATEGO": "Agro" }, "geometry": { "type": "Point", "coordinates": [ 93.015506, 25.182322 ] } },
{ "type": "Feature", "properties": { "STATE_ID": 4, "DISTRICT_I": 378, "BLOCK_ID": 2460, "HAB_ID": 651215, "FACILITY_I": 956651, "FAC_DESC": "Good Will  school", "FAC_CATEGO": "Education" }, "geometry": { "type": "Point", "coordinates": [ 93.116308, 25.177043 ] } },
{ "type": "Feature", "properties": { "STATE_ID": 4, "DISTRICT_I": 378, "BLOCK_ID": 2460, "HAB_ID": 233369, "FACILITY_I": 940575, "FAC_DESC": "Hadingma High School", "FAC_CATEGO": "Education" }, "geometry": { "type": "Point", "coordinates": [ 93.025769, 25.254641 ] } },
{ "type": "Feature", "properties": { "STATE_ID": 4, "DISTRICT_I": 378, "BLOCK_ID": 1647, "HAB_ID": 385998, "FACILITY_I": 908102, "FAC_DESC": "Gunjung BPHC", "FAC_CATEGO": "Medical" }, "geometry": { "type": "Point", "coordinates": [ 93.008901, 25.31621 ] } },
{ "type": "Feature", "properties": { "STATE_ID": 4, "DISTRICT_I": 378, "BLOCK_ID": 1647, "HAB_ID": 1045326, "FACILITY_I": 908104, "FAC_DESC": "Thanalambra Bazar", "FAC_CATEGO": "Agro" }, "geometry": { "type": "Point", "coordinates": [ 92.981046, 25.360423 ] } },
{ "type": "Feature", "properties": { "STATE_ID": 4, "DISTRICT_I": 378, "BLOCK_ID": 1647, "HAB_ID": 1050821, "FACILITY_I": 863597, "FAC_DESC": "THINGVOM HIGH SCHOOL", "FAC_CATEGO": "Education" }, "geometry": { "type": "Point", "coordinates": [ 93.39286, 25.375355 ] } },
{ "type": "Feature", "properties": { "STATE_ID": 4, "DISTRICT_I": 378, "BLOCK_ID": 1647, "HAB_ID": 418314, "FACILITY_I": 864118, "FAC_DESC": "Hazadisa Bazaar", "FAC_CATEGO": "Agro" }, "geometry": { "type": "Point", "coordinates": [ 93.290792, 25.380551 ] } },
{ "type": "Feature", "properties": { "STATE_ID": 4, "DISTRICT_I": 378, "BLOCK_ID": 1647, "HAB_ID": 620712, "FACILITY_I": 863967, "FAC_DESC": "Saraswati Vidya Mandir High School", "FAC_CATEGO": "Education" }, "geometry": { "type": "Point", "coordinates": [ 93.109652, 25.502233 ] } },
{ "type": "Feature", "properties": { "STATE_ID": 4, "DISTRICT_I": 378, "BLOCK_ID": 1648, "HAB_ID": 177731, "FACILITY_I": 894147, "FAC_DESC": "JB Hagjer Memorial High School", "FAC_CATEGO": "Education" }, "geometry": { "type": "Point", "coordinates": [ 92.935483, 25.792471 ] } },
{ "type": "Feature", "properties": { "STATE_ID": 4, "DISTRICT_I": 378, "BLOCK_ID": 1648, "HAB_ID": 866684, "FACILITY_I": 894498, "FAC_DESC": "Diyungmukh MPHC", "FAC_CATEGO": "Medical" }, "geometry": { "type": "Point", "coordinates": [ 92.914484, 25.739989 ] } },
{ "type": "Feature", "properties": { "STATE_ID": 4, "DISTRICT_I": 378, "BLOCK_ID": 4283, "HAB_ID": 379615, "FACILITY_I": 894500, "FAC_DESC": "Green Market", "FAC_CATEGO": "Agro" }, "geometry": { "type": "Point", "coordinates": [ 92.655953, 25.511832 ] } },
{ "type": "Feature", "properties": { "STATE_ID": 4, "DISTRICT_I": 378, "BLOCK_ID": 1648, "HAB_ID": 789926, "FACILITY_I": 914420, "FAC_DESC": "Bus Stand", "FAC_CATEGO": "Transport/Admin" }, "geometry": { "type": "Point", "coordinates": [ 92.970113, 25.559378 ] } },
{ "type": "Feature", "properties": { "STATE_ID": 4, "DISTRICT_I": 378, "BLOCK_ID": 1648, "HAB_ID": 620581, "FACILITY_I": 914439, "FAC_DESC": "Bus Stand", "FAC_CATEGO": "Transport/Admin" }, "geometry": { "type": "Point", "coordinates": [ 92.923499, 25.606947 ] } },
{ "type": "Feature", "properties": { "STATE_ID": 4, "DISTRICT_I": 378, "BLOCK_ID": 2138, "HAB_ID": 1185582, "FACILITY_I": 895619, "FAC_DESC": "HAFLONG GOVT GIRLS HSS", "FAC_CATEGO": "Education" }, "geometry": { "type": "Point", "coordinates": [ 93.015099, 25.169666 ] } },
{ "type": "Feature", "properties": { "STATE_ID": 4, "DISTRICT_I": 378, "BLOCK_ID": 1648, "HAB_ID": 888343, "FACILITY_I": 947330, "FAC_DESC": "bus Stand Raijaodisa", "FAC_CATEGO": "Transport/Admin" }, "geometry": { "type": "Point", "coordinates": [ 93.011813, 25.784402 ] } },
{ "type": "Feature", "properties": { "STATE_ID": 4, "DISTRICT_I": 378, "BLOCK_ID": 4283, "HAB_ID": 1042590, "FACILITY_I": 962992, "FAC_DESC": "Bus Stand", "FAC_CATEGO": "Transport/Admin" }, "geometry": { "type": "Point", "coordinates": [ 93.002068, 25.41998 ] } },
{ "type": "Feature", "properties": { "STATE_ID": 4, "DISTRICT_I": 378, "BLOCK_ID": 4283, "HAB_ID": 233337, "FACILITY_I": 931529, "FAC_DESC": "Lobang Bazar", "FAC_CATEGO": "Agro" }, "geometry": { "type": "Point", "coordinates": [ 92.663773, 25.451508 ] } },
{ "type": "Feature", "properties": { "STATE_ID": 4, "DISTRICT_I": 378, "BLOCK_ID": 2460, "HAB_ID": 736294, "FACILITY_I": 957158, "FAC_DESC": "N Longkhai Bus stand", "FAC_CATEGO": "Transport/Admin" }, "geometry": { "type": "Point", "coordinates": [ 93.150944, 25.174566 ] } },
{ "type": "Feature", "properties": { "STATE_ID": 4, "DISTRICT_I": 378, "BLOCK_ID": 1647, "HAB_ID": 311296, "FACILITY_I": 864195, "FAC_DESC": "Drang Bathari", "FAC_CATEGO": "Transport/Admin" }, "geometry": { "type": "Point", "coordinates": [ 93.247459, 25.356394 ] } },
{ "type": "Feature", "properties": { "STATE_ID": 4, "DISTRICT_I": 378, "BLOCK_ID": 1647, "HAB_ID": 344112, "FACILITY_I": 946212, "FAC_DESC": "Langting Bus Stand No 1", "FAC_CATEGO": "Transport/Admin" }, "geometry": { "type": "Point", "coordinates": [ 93.119388, 25.497762 ] } },
{ "type": "Feature", "properties": { "STATE_ID": 4, "DISTRICT_I": 378, "BLOCK_ID": 1647, "HAB_ID": 669176, "FACILITY_I": 946219, "FAC_DESC": "Manderdisa I Bus Stand No. 1", "FAC_CATEGO": "Transport/Admin" }, "geometry": { "type": "Point", "coordinates": [ 93.138456, 25.74009 ] } },
{ "type": "Feature", "properties": { "STATE_ID": 4, "DISTRICT_I": 378, "BLOCK_ID": 2138, "HAB_ID": 921944, "FACILITY_I": 895565, "FAC_DESC": "Veterinary Firsy Aid Centre", "FAC_CATEGO": "Medical" }, "geometry": { "type": "Point", "coordinates": [ 92.989807, 25.109096 ] } },
{ "type": "Feature", "properties": { "STATE_ID": 4, "DISTRICT_I": 378, "BLOCK_ID": 4283, "HAB_ID": 1073810, "FACILITY_I": 894279, "FAC_DESC": "Umrangso High School", "FAC_CATEGO": "Education" }, "geometry": { "type": "Point", "coordinates": [ 92.73434, 25.507238 ] } },
{ "type": "Feature", "properties": { "STATE_ID": 4, "DISTRICT_I": 378, "BLOCK_ID": 2460, "HAB_ID": 792751, "FACILITY_I": 956244, "FAC_DESC": "Nutan Ninglo Bus stand", "FAC_CATEGO": "Transport/Admin" }, "geometry": { "type": "Point", "coordinates": [ 93.350458, 25.21734 ] } },
{ "type": "Feature", "properties": { "STATE_ID": 4, "DISTRICT_I": 378, "BLOCK_ID": 2460, "HAB_ID": 1185588, "FACILITY_I": 958265, "FAC_DESC": "N Hojai Bus stand", "FAC_CATEGO": "Transport/Admin" }, "geometry": { "type": "Point", "coordinates": [ 93.016455, 25.217397 ] } },
{ "type": "Feature", "properties": { "STATE_ID": 4, "DISTRICT_I": 378, "BLOCK_ID": 4283, "HAB_ID": 949219, "FACILITY_I": 962392, "FAC_DESC": "KGBV", "FAC_CATEGO": "Education" }, "geometry": { "type": "Point", "coordinates": [ 92.788717, 25.412158 ] } },
{ "type": "Feature", "properties": { "STATE_ID": 4, "DISTRICT_I": 378, "BLOCK_ID": 2138, "HAB_ID": 470609, "FACILITY_I": 905704, "FAC_DESC": "Assam Gramin Vikash Bank", "FAC_CATEGO": "Transport/Admin" }, "geometry": { "type": "Point", "coordinates": [ 93.013454, 25.182708 ] } },
{ "type": "Feature", "properties": { "STATE_ID": 4, "DISTRICT_I": 378, "BLOCK_ID": 4283, "HAB_ID": 1185619, "FACILITY_I": 922820, "FAC_DESC": "Sangbar Bus Stand", "FAC_CATEGO": "Transport/Admin" }, "geometry": { "type": "Point", "coordinates": [ 92.813172, 25.365023 ] } },
{ "type": "Feature", "properties": { "STATE_ID": 4, "DISTRICT_I": 378, "BLOCK_ID": 4283, "HAB_ID": 379615, "FACILITY_I": 894289, "FAC_DESC": "Angbong High School", "FAC_CATEGO": "Education" }, "geometry": { "type": "Point", "coordinates": [ 92.654968, 25.5084 ] } },
{ "type": "Feature", "properties": { "STATE_ID": 4, "DISTRICT_I": 378, "BLOCK_ID": 4283, "HAB_ID": 1073810, "FACILITY_I": 894475, "FAC_DESC": "Umrangso Bazzar", "FAC_CATEGO": "Agro" }, "geometry": { "type": "Point", "coordinates": [ 92.735919, 25.511511 ] } },
{ "type": "Feature", "properties": { "STATE_ID": 4, "DISTRICT_I": 378, "BLOCK_ID": 1648, "HAB_ID": 888795, "FACILITY_I": 914446, "FAC_DESC": "Bus Stand", "FAC_CATEGO": "Transport/Admin" }, "geometry": { "type": "Point", "coordinates": [ 92.919751, 25.658083 ] } },
{ "type": "Feature", "properties": { "STATE_ID": 4, "DISTRICT_I": 378, "BLOCK_ID": 2138, "HAB_ID": 1322550, "FACILITY_I": 895612, "FAC_DESC": "PUBLIC ENGLISH HIGH SCHOOL", "FAC_CATEGO": "Education" }, "geometry": { "type": "Point", "coordinates": [ 92.855769, 25.115461 ] } },
{ "type": "Feature", "properties": { "STATE_ID": 4, "DISTRICT_I": 378, "BLOCK_ID": 1648, "HAB_ID": 1321722, "FACILITY_I": 918990, "FAC_DESC": "Bus Stand", "FAC_CATEGO": "Transport/Admin" }, "geometry": { "type": "Point", "coordinates": [ 92.914392, 25.746842 ] } },
{ "type": "Feature", "properties": { "STATE_ID": 4, "DISTRICT_I": 378, "BLOCK_ID": 1648, "HAB_ID": 620668, "FACILITY_I": 919076, "FAC_DESC": "Bus Stand", "FAC_CATEGO": "Transport/Admin" }, "geometry": { "type": "Point", "coordinates": [ 92.879727, 25.738298 ] } },
{ "type": "Feature", "properties": { "STATE_ID": 4, "DISTRICT_I": 378, "BLOCK_ID": 1647, "HAB_ID": 554808, "FACILITY_I": 864123, "FAC_DESC": "Kephre Bazaar", "FAC_CATEGO": "Agro" }, "geometry": { "type": "Point", "coordinates": [ 93.359951, 25.442064 ] } },
{ "type": "Feature", "properties": { "STATE_ID": 4, "DISTRICT_I": 378, "BLOCK_ID": 2460, "HAB_ID": 233369, "FACILITY_I": 954869, "FAC_DESC": "Choto Wapu Mandi", "FAC_CATEGO": "Agro" }, "geometry": { "type": "Point", "coordinates": [ 93.026558, 25.256528 ] } },
{ "type": "Feature", "properties": { "STATE_ID": 4, "DISTRICT_I": 378, "BLOCK_ID": 1648, "HAB_ID": 177731, "FACILITY_I": 920241, "FAC_DESC": "Sugar cane processing unit", "FAC_CATEGO": "Agro" }, "geometry": { "type": "Point", "coordinates": [ 92.943156, 25.790349 ] } },
{ "type": "Feature", "properties": { "STATE_ID": 4, "DISTRICT_I": 378, "BLOCK_ID": 1648, "HAB_ID": 620633, "FACILITY_I": 919080, "FAC_DESC": "Bus Stand", "FAC_CATEGO": "Transport/Admin" }, "geometry": { "type": "Point", "coordinates": [ 92.867866, 25.733027 ] } },
{ "type": "Feature", "properties": { "STATE_ID": 4, "DISTRICT_I": 378, "BLOCK_ID": 2460, "HAB_ID": 424543, "FACILITY_I": 954342, "FAC_DESC": "Hojai Kasiba Bus stand", "FAC_CATEGO": "Transport/Admin" }, "geometry": { "type": "Point", "coordinates": [ 93.0174, 25.215737 ] } },
{ "type": "Feature", "properties": { "STATE_ID": 4, "DISTRICT_I": 378, "BLOCK_ID": 2460, "HAB_ID": 392075, "FACILITY_I": 956248, "FAC_DESC": "Hejaichak Bus stand", "FAC_CATEGO": "Transport/Admin" }, "geometry": { "type": "Point", "coordinates": [ 93.339477, 25.225607 ] } },
{ "type": "Feature", "properties": { "STATE_ID": 4, "DISTRICT_I": 378, "BLOCK_ID": 2138, "HAB_ID": 1185575, "FACILITY_I": 905767, "FAC_DESC": "Songpijang High School", "FAC_CATEGO": "Education" }, "geometry": { "type": "Point", "coordinates": [ 93.022675, 25.157821 ] } },
{ "type": "Feature", "properties": { "STATE_ID": 4, "DISTRICT_I": 378, "BLOCK_ID": 4283, "HAB_ID": 1185610, "FACILITY_I": 922824, "FAC_DESC": "Kharthongship Bus Stand", "FAC_CATEGO": "Transport/Admin" }, "geometry": { "type": "Point", "coordinates": [ 92.810272, 25.253547 ] } },
{ "type": "Feature", "properties": { "STATE_ID": 4, "DISTRICT_I": 378, "BLOCK_ID": 1647, "HAB_ID": 1045326, "FACILITY_I": 908107, "FAC_DESC": "Thanalambra High School", "FAC_CATEGO": "Education" }, "geometry": { "type": "Point", "coordinates": [ 92.978754, 25.364497 ] } },
{ "type": "Feature", "properties": { "STATE_ID": 4, "DISTRICT_I": 378, "BLOCK_ID": 4283, "HAB_ID": 949219, "FACILITY_I": 908541, "FAC_DESC": "BPC Synod High School", "FAC_CATEGO": "Education" }, "geometry": { "type": "Point", "coordinates": [ 92.795417, 25.414218 ] } },
{ "type": "Feature", "properties": { "STATE_ID": 4, "DISTRICT_I": 378, "BLOCK_ID": 1648, "HAB_ID": 454735, "FACILITY_I": 914434, "FAC_DESC": "Bus Stand", "FAC_CATEGO": "Transport/Admin" }, "geometry": { "type": "Point", "coordinates": [ 92.935645, 25.592092 ] } },
{ "type": "Feature", "properties": { "STATE_ID": 4, "DISTRICT_I": 378, "BLOCK_ID": 2460, "HAB_ID": 651215, "FACILITY_I": 863353, "FAC_DESC": "Block Primary Health Centre", "FAC_CATEGO": "Medical" }, "geometry": { "type": "Point", "coordinates": [ 93.112187, 25.179215 ] } },
{ "type": "Feature", "properties": { "STATE_ID": 4, "DISTRICT_I": 378, "BLOCK_ID": 1647, "HAB_ID": 651709, "FACILITY_I": 864230, "FAC_DESC": "A K LANGTHASA ASSAM OIL", "FAC_CATEGO": "Transport/Admin" }, "geometry": { "type": "Point", "coordinates": [ 93.136462, 25.301923 ] } },
{ "type": "Feature", "properties": { "STATE_ID": 4, "DISTRICT_I": 378, "BLOCK_ID": 1648, "HAB_ID": 233421, "FACILITY_I": 918999, "FAC_DESC": "Bus Stand", "FAC_CATEGO": "Transport/Admin" }, "geometry": { "type": "Point", "coordinates": [ 92.925681, 25.759593 ] } },
{ "type": "Feature", "properties": { "STATE_ID": 4, "DISTRICT_I": 378, "BLOCK_ID": 1647, "HAB_ID": 1185519, "FACILITY_I": 946207, "FAC_DESC": "Didaodip Bus Stand No 1", "FAC_CATEGO": "Transport/Admin" }, "geometry": { "type": "Point", "coordinates": [ 93.146828, 25.251863 ] } },
{ "type": "Feature", "properties": { "STATE_ID": 4, "DISTRICT_I": 378, "BLOCK_ID": 4283, "HAB_ID": 1318169, "FACILITY_I": 943633, "FAC_DESC": "Rongarting Bus Stand", "FAC_CATEGO": "Transport/Admin" }, "geometry": { "type": "Point", "coordinates": [ 92.723888, 25.48475 ] } },
{ "type": "Feature", "properties": { "STATE_ID": 4, "DISTRICT_I": 378, "BLOCK_ID": 4283, "HAB_ID": 1073810, "FACILITY_I": 894216, "FAC_DESC": "Garampani Govt High School", "FAC_CATEGO": "Education" }, "geometry": { "type": "Point", "coordinates": [ 92.732842, 25.507815 ] } },
{ "type": "Feature", "properties": { "STATE_ID": 4, "DISTRICT_I": 378, "BLOCK_ID": 1648, "HAB_ID": 177731, "FACILITY_I": 894233, "FAC_DESC": "St Xaviers School", "FAC_CATEGO": "Education" }, "geometry": { "type": "Point", "coordinates": [ 92.942652, 25.791517 ] } },
{ "type": "Feature", "properties": { "STATE_ID": 4, "DISTRICT_I": 378, "BLOCK_ID": 4283, "HAB_ID": 1073810, "FACILITY_I": 894565, "FAC_DESC": "Super Service Station", "FAC_CATEGO": "Transport/Admin" }, "geometry": { "type": "Point", "coordinates": [ 92.741072, 25.512403 ] } },
{ "type": "Feature", "properties": { "STATE_ID": 4, "DISTRICT_I": 378, "BLOCK_ID": 2138, "HAB_ID": 1322434, "FACILITY_I": 894633, "FAC_DESC": "Assam Gramin Vikash Bank Harangajao", "FAC_CATEGO": "Transport/Admin" }, "geometry": { "type": "Point", "coordinates": [ 92.856431, 25.114485 ] } },
{ "type": "Feature", "properties": { "STATE_ID": 4, "DISTRICT_I": 378, "BLOCK_ID": 2138, "HAB_ID": 631194, "FACILITY_I": 896186, "FAC_DESC": "HAFLONG GOVT COLLEGE", "FAC_CATEGO": "Education" }, "geometry": { "type": "Point", "coordinates": [ 93.017322, 25.172352 ] } },
{ "type": "Feature", "properties": { "STATE_ID": 4, "DISTRICT_I": 378, "BLOCK_ID": 2138, "HAB_ID": 631194, "FACILITY_I": 905763, "FAC_DESC": "Sambudhan High School", "FAC_CATEGO": "Education" }, "geometry": { "type": "Point", "coordinates": [ 93.01698, 25.183216 ] } },
{ "type": "Feature", "properties": { "STATE_ID": 4, "DISTRICT_I": 378, "BLOCK_ID": 2460, "HAB_ID": 223552, "FACILITY_I": 866906, "FAC_DESC": "Jinam Market", "FAC_CATEGO": "Agro" }, "geometry": { "type": "Point", "coordinates": [ 93.181753, 25.026033 ] } },
{ "type": "Feature", "properties": { "STATE_ID": 4, "DISTRICT_I": 378, "BLOCK_ID": 4283, "HAB_ID": 1041325, "FACILITY_I": 963004, "FAC_DESC": "Bus Stand Tere", "FAC_CATEGO": "Transport/Admin" }, "geometry": { "type": "Point", "coordinates": [ 92.987562, 25.446202 ] } },
{ "type": "Feature", "properties": { "STATE_ID": 4, "DISTRICT_I": 378, "BLOCK_ID": 2138, "HAB_ID": 470609, "FACILITY_I": 906835, "FAC_DESC": "Haflong wholesale consumer cooperative godown", "FAC_CATEGO": "Agro" }, "geometry": { "type": "Point", "coordinates": [ 93.0159, 25.182171 ] } },
{ "type": "Feature", "properties": { "STATE_ID": 4, "DISTRICT_I": 378, "BLOCK_ID": 1648, "HAB_ID": 774630, "FACILITY_I": 947332, "FAC_DESC": "sugar cane processing unit", "FAC_CATEGO": "Agro" }, "geometry": { "type": "Point", "coordinates": [ 93.049704, 25.781696 ] } },
{ "type": "Feature", "properties": { "STATE_ID": 4, "DISTRICT_I": 378, "BLOCK_ID": 4283, "HAB_ID": 1317650, "FACILITY_I": 963001, "FAC_DESC": "Bus Stand Haplai Raji", "FAC_CATEGO": "Transport/Admin" }, "geometry": { "type": "Point", "coordinates": [ 92.728385, 25.499145 ] } },
{ "type": "Feature", "properties": { "STATE_ID": 4, "DISTRICT_I": 378, "BLOCK_ID": 2138, "HAB_ID": 1185575, "FACILITY_I": 905777, "FAC_DESC": "Govt Boy's Higher Secondary School", "FAC_CATEGO": "Education" }, "geometry": { "type": "Point", "coordinates": [ 93.015711, 25.161631 ] } },
{ "type": "Feature", "properties": { "STATE_ID": 4, "DISTRICT_I": 378, "BLOCK_ID": 2138, "HAB_ID": 631194, "FACILITY_I": 962758, "FAC_DESC": "State Vety Dispensary", "FAC_CATEGO": "Medical" }, "geometry": { "type": "Point", "coordinates": [ 93.014382, 25.184878 ] } },
{ "type": "Feature", "properties": { "STATE_ID": 4, "DISTRICT_I": 378, "BLOCK_ID": 1647, "HAB_ID": 261579, "FACILITY_I": 908099, "FAC_DESC": "Dersi Bus Stand", "FAC_CATEGO": "Transport/Admin" }, "geometry": { "type": "Point", "coordinates": [ 92.984129, 25.36805 ] } },
{ "type": "Feature", "properties": { "STATE_ID": 4, "DISTRICT_I": 378, "BLOCK_ID": 1647, "HAB_ID": 385998, "FACILITY_I": 908106, "FAC_DESC": "Good Shepherd High School", "FAC_CATEGO": "Education" }, "geometry": { "type": "Point", "coordinates": [ 93.004963, 25.311008 ] } },
{ "type": "Feature", "properties": { "STATE_ID": 4, "DISTRICT_I": 378, "BLOCK_ID": 2138, "HAB_ID": 1185582, "FACILITY_I": 894338, "FAC_DESC": "Essar Gas Station", "FAC_CATEGO": "Transport/Admin" }, "geometry": { "type": "Point", "coordinates": [ 93.012002, 25.172486 ] } },
{ "type": "Feature", "properties": { "STATE_ID": 4, "DISTRICT_I": 378, "BLOCK_ID": 4283, "HAB_ID": 1073810, "FACILITY_I": 894445, "FAC_DESC": "NEEPCO Hospital Umrangso", "FAC_CATEGO": "Medical" }, "geometry": { "type": "Point", "coordinates": [ 92.734985, 25.516567 ] } },
{ "type": "Feature", "properties": { "STATE_ID": 4, "DISTRICT_I": 378, "BLOCK_ID": 1648, "HAB_ID": 620746, "FACILITY_I": 914415, "FAC_DESC": "Bus Stand", "FAC_CATEGO": "Transport/Admin" }, "geometry": { "type": "Point", "coordinates": [ 92.972961, 25.547281 ] } },
{ "type": "Feature", "properties": { "STATE_ID": 4, "DISTRICT_I": 378, "BLOCK_ID": 2138, "HAB_ID": 470609, "FACILITY_I": 895588, "FAC_DESC": "LODI HIGH SCHOOL", "FAC_CATEGO": "Education" }, "geometry": { "type": "Point", "coordinates": [ 93.004097, 25.190019 ] } },
{ "type": "Feature", "properties": { "STATE_ID": 4, "DISTRICT_I": 378, "BLOCK_ID": 2460, "HAB_ID": 177642, "FACILITY_I": 863343, "FAC_DESC": "MS Mahur Energy Station", "FAC_CATEGO": "Transport/Admin" }, "geometry": { "type": "Point", "coordinates": [ 93.093805, 25.186904 ] } },
{ "type": "Feature", "properties": { "STATE_ID": 4, "DISTRICT_I": 378, "BLOCK_ID": 2460, "HAB_ID": 233296, "FACILITY_I": 882113, "FAC_DESC": "Vongzawl High School", "FAC_CATEGO": "Education" }, "geometry": { "type": "Point", "coordinates": [ 93.15945, 25.094759 ] } },
{ "type": "Feature", "properties": { "STATE_ID": 4, "DISTRICT_I": 378, "BLOCK_ID": 2138, "HAB_ID": 1322550, "FACILITY_I": 906420, "FAC_DESC": "Punjab National Bank", "FAC_CATEGO": "Transport/Admin" }, "geometry": { "type": "Point", "coordinates": [ 92.85548, 25.114515 ] } },
{ "type": "Feature", "properties": { "STATE_ID": 4, "DISTRICT_I": 378, "BLOCK_ID": 2138, "HAB_ID": 1185575, "FACILITY_I": 905805, "FAC_DESC": "Mahadevtilla Weekly Market", "FAC_CATEGO": "Agro" }, "geometry": { "type": "Point", "coordinates": [ 93.021608, 25.156003 ] } },
{ "type": "Feature", "properties": { "STATE_ID": 4, "DISTRICT_I": 378, "BLOCK_ID": 2138, "HAB_ID": 797803, "FACILITY_I": 895609, "FAC_DESC": "SIMTUILUONG HIGH SCHOOL", "FAC_CATEGO": "Education" }, "geometry": { "type": "Point", "coordinates": [ 92.796478, 25.098335 ] } },
{ "type": "Feature", "properties": { "STATE_ID": 4, "DISTRICT_I": 378, "BLOCK_ID": 2460, "HAB_ID": 396006, "FACILITY_I": 873268, "FAC_DESC": "Hangrum Market", "FAC_CATEGO": "Agro" }, "geometry": { "type": "Point", "coordinates": [ 93.30345, 25.139263 ] } },
{ "type": "Feature", "properties": { "STATE_ID": 4, "DISTRICT_I": 378, "BLOCK_ID": 1647, "HAB_ID": 300243, "FACILITY_I": 864143, "FAC_DESC": "Didambra Bazaar", "FAC_CATEGO": "Agro" }, "geometry": { "type": "Point", "coordinates": [ 93.279872, 25.357718 ] } },
{ "type": "Feature", "properties": { "STATE_ID": 4, "DISTRICT_I": 378, "BLOCK_ID": 1647, "HAB_ID": 1102140, "FACILITY_I": 864208, "FAC_DESC": "Wajao", "FAC_CATEGO": "Transport/Admin" }, "geometry": { "type": "Point", "coordinates": [ 93.297929, 25.425525 ] } },
{ "type": "Feature", "properties": { "STATE_ID": 4, "DISTRICT_I": 378, "BLOCK_ID": 4283, "HAB_ID": 1185619, "FACILITY_I": 894273, "FAC_DESC": "Sangbar High School", "FAC_CATEGO": "Education" }, "geometry": { "type": "Point", "coordinates": [ 92.819295, 25.366905 ] } },
{ "type": "Feature", "properties": { "STATE_ID": 4, "DISTRICT_I": 378, "BLOCK_ID": 2138, "HAB_ID": 631194, "FACILITY_I": 894359, "FAC_DESC": "Haflong Filling Station", "FAC_CATEGO": "Transport/Admin" }, "geometry": { "type": "Point", "coordinates": [ 93.01865, 25.187369 ] } },
{ "type": "Feature", "properties": { "STATE_ID": 4, "DISTRICT_I": 378, "BLOCK_ID": 1647, "HAB_ID": 669176, "FACILITY_I": 946218, "FAC_DESC": "Manderdisa I Bus Stand No. 2", "FAC_CATEGO": "Transport/Admin" }, "geometry": { "type": "Point", "coordinates": [ 93.138642, 25.741496 ] } },
{ "type": "Feature", "properties": { "STATE_ID": 4, "DISTRICT_I": 378, "BLOCK_ID": 2138, "HAB_ID": 470609, "FACILITY_I": 908177, "FAC_DESC": "Zion Co operative Ltd Godown", "FAC_CATEGO": "Agro" }, "geometry": { "type": "Point", "coordinates": [ 93.016146, 25.182201 ] } },
{ "type": "Feature", "properties": { "STATE_ID": 4, "DISTRICT_I": 378, "BLOCK_ID": 1647, "HAB_ID": 485897, "FACILITY_I": 907241, "FAC_DESC": "Kalachand Bazaar", "FAC_CATEGO": "Agro" }, "geometry": { "type": "Point", "coordinates": [ 93.131743, 25.339925 ] } },
{ "type": "Feature", "properties": { "STATE_ID": 4, "DISTRICT_I": 378, "BLOCK_ID": 4283, "HAB_ID": 1317819, "FACILITY_I": 922818, "FAC_DESC": "Langpui Bus Stand", "FAC_CATEGO": "Transport/Admin" }, "geometry": { "type": "Point", "coordinates": [ 92.7894, 25.387883 ] } },
{ "type": "Feature", "properties": { "STATE_ID": 4, "DISTRICT_I": 378, "BLOCK_ID": 1647, "HAB_ID": 245749, "FACILITY_I": 863657, "FAC_DESC": "Evergreen High School", "FAC_CATEGO": "Education" }, "geometry": { "type": "Point", "coordinates": [ 93.132569, 25.30545 ] } },
{ "type": "Feature", "properties": { "STATE_ID": 4, "DISTRICT_I": 378, "BLOCK_ID": 1647, "HAB_ID": 651709, "FACILITY_I": 863672, "FAC_DESC": "Maibang High School", "FAC_CATEGO": "Education" }, "geometry": { "type": "Point", "coordinates": [ 93.139642, 25.301527 ] } },
{ "type": "Feature", "properties": { "STATE_ID": 4, "DISTRICT_I": 378, "BLOCK_ID": 1647, "HAB_ID": 620712, "FACILITY_I": 863958, "FAC_DESC": "HM St Mary High School", "FAC_CATEGO": "Education" }, "geometry": { "type": "Point", "coordinates": [ 93.115849, 25.506517 ] } },
{ "type": "Feature", "properties": { "STATE_ID": 4, "DISTRICT_I": 378, "BLOCK_ID": 1648, "HAB_ID": 300595, "FACILITY_I": 947340, "FAC_DESC": "sugar cane processing unit", "FAC_CATEGO": "Agro" }, "geometry": { "type": "Point", "coordinates": [ 92.990073, 25.783825 ] } },
{ "type": "Feature", "properties": { "STATE_ID": 4, "DISTRICT_I": 378, "BLOCK_ID": 1648, "HAB_ID": 892266, "FACILITY_I": 920232, "FAC_DESC": "Rice  Mill", "FAC_CATEGO": "Agro" }, "geometry": { "type": "Point", "coordinates": [ 92.936608, 25.795989 ] } },
{ "type": "Feature", "properties": { "STATE_ID": 4, "DISTRICT_I": 378, "BLOCK_ID": 1647, "HAB_ID": 972234, "FACILITY_I": 918794, "FAC_DESC": "Dima Hasao Roller Flour Mill", "FAC_CATEGO": "Agro" }, "geometry": { "type": "Point", "coordinates": [ 93.13301, 25.720094 ] } },
{ "type": "Feature", "properties": { "STATE_ID": 4, "DISTRICT_I": 378, "BLOCK_ID": 2138, "HAB_ID": 631194, "FACILITY_I": 905792, "FAC_DESC": "Nazareth Model High School", "FAC_CATEGO": "Education" }, "geometry": { "type": "Point", "coordinates": [ 93.018085, 25.17671 ] } },
{ "type": "Feature", "properties": { "STATE_ID": 4, "DISTRICT_I": 378, "BLOCK_ID": 4283, "HAB_ID": 703624, "FACILITY_I": 943630, "FAC_DESC": "Mirphung Bus Stand", "FAC_CATEGO": "Transport/Admin" }, "geometry": { "type": "Point", "coordinates": [ 92.740743, 25.433275 ] } },
{ "type": "Feature", "properties": { "STATE_ID": 4, "DISTRICT_I": 378, "BLOCK_ID": 2138, "HAB_ID": 1185575, "FACILITY_I": 895632, "FAC_DESC": "HILLS DEGREE COLLEGE", "FAC_CATEGO": "Education" }, "geometry": { "type": "Point", "coordinates": [ 93.01239, 25.16955 ] } },
{ "type": "Feature", "properties": { "STATE_ID": 4, "DISTRICT_I": 378, "BLOCK_ID": 1647, "HAB_ID": 1045326, "FACILITY_I": 908098, "FAC_DESC": "Thanalambra Bus Stand", "FAC_CATEGO": "Transport/Admin" }, "geometry": { "type": "Point", "coordinates": [ 92.979983, 25.35936 ] } },
{ "type": "Feature", "properties": { "STATE_ID": 4, "DISTRICT_I": 378, "BLOCK_ID": 2138, "HAB_ID": 470609, "FACILITY_I": 894330, "FAC_DESC": "NRL Gas Station", "FAC_CATEGO": "Transport/Admin" }, "geometry": { "type": "Point", "coordinates": [ 93.011539, 25.179673 ] } },
{ "type": "Feature", "properties": { "STATE_ID": 4, "DISTRICT_I": 378, "BLOCK_ID": 1648, "HAB_ID": 866684, "FACILITY_I": 894153, "FAC_DESC": "Diyungbra English High School", "FAC_CATEGO": "Education" }, "geometry": { "type": "Point", "coordinates": [ 92.915183, 25.73539 ] } },
{ "type": "Feature", "properties": { "STATE_ID": 4, "DISTRICT_I": 378, "BLOCK_ID": 2138, "HAB_ID": 631194, "FACILITY_I": 894453, "FAC_DESC": "Bank of Baroda", "FAC_CATEGO": "Transport/Admin" }, "geometry": { "type": "Point", "coordinates": [ 93.01518, 25.173353 ] } },
{ "type": "Feature", "properties": { "STATE_ID": 4, "DISTRICT_I": 378, "BLOCK_ID": 4283, "HAB_ID": 257838, "FACILITY_I": 894487, "FAC_DESC": "Dehangi Bazzar", "FAC_CATEGO": "Agro" }, "geometry": { "type": "Point", "coordinates": [ 92.994243, 25.423577 ] } },
{ "type": "Feature", "properties": { "STATE_ID": 4, "DISTRICT_I": 378, "BLOCK_ID": 1648, "HAB_ID": 1320419, "FACILITY_I": 894553, "FAC_DESC": "Digandu Bazaar", "FAC_CATEGO": "Agro" }, "geometry": { "type": "Point", "coordinates": [ 93.004209, 25.781869 ] } },
{ "type": "Feature", "properties": { "STATE_ID": 4, "DISTRICT_I": 378, "BLOCK_ID": 4283, "HAB_ID": 1073810, "FACILITY_I": 894589, "FAC_DESC": "State Bank of India", "FAC_CATEGO": "Transport/Admin" }, "geometry": { "type": "Point", "coordinates": [ 92.732177, 25.511798 ] } },
{ "type": "Feature", "properties": { "STATE_ID": 4, "DISTRICT_I": 378, "BLOCK_ID": 1647, "HAB_ID": 1102140, "FACILITY_I": 864135, "FAC_DESC": "Wajao Bazaar", "FAC_CATEGO": "Agro" }, "geometry": { "type": "Point", "coordinates": [ 93.293965, 25.421718 ] } },
{ "type": "Feature", "properties": { "STATE_ID": 4, "DISTRICT_I": 378, "BLOCK_ID": 1647, "HAB_ID": 554808, "FACILITY_I": 864214, "FAC_DESC": "Khepre", "FAC_CATEGO": "Transport/Admin" }, "geometry": { "type": "Point", "coordinates": [ 93.359826, 25.441728 ] } },
{ "type": "Feature", "properties": { "STATE_ID": 4, "DISTRICT_I": 378, "BLOCK_ID": 2460, "HAB_ID": 613746, "FACILITY_I": 869887, "FAC_DESC": "Laisong Bagan High School", "FAC_CATEGO": "Education" }, "geometry": { "type": "Point", "coordinates": [ 93.35495, 25.23848 ] } },
{ "type": "Feature", "properties": { "STATE_ID": 4, "DISTRICT_I": 378, "BLOCK_ID": 1647, "HAB_ID": 245749, "FACILITY_I": 963607, "FAC_DESC": "State Veterinary Dispensary", "FAC_CATEGO": "Medical" }, "geometry": { "type": "Point", "coordinates": [ 93.133448, 25.303864 ] } },
{ "type": "Feature", "properties": { "STATE_ID": 4, "DISTRICT_I": 378, "BLOCK_ID": 2138, "HAB_ID": 1322660, "FACILITY_I": 905698, "FAC_DESC": "Axis Bank", "FAC_CATEGO": "Transport/Admin" }, "geometry": { "type": "Point", "coordinates": [ 93.015533, 25.170965 ] } },
{ "type": "Feature", "properties": { "STATE_ID": 4, "DISTRICT_I": 378, "BLOCK_ID": 1647, "HAB_ID": 788015, "FACILITY_I": 864201, "FAC_DESC": "Nablaidisa", "FAC_CATEGO": "Transport/Admin" }, "geometry": { "type": "Point", "coordinates": [ 93.265914, 25.380695 ] } },
{ "type": "Feature", "properties": { "STATE_ID": 4, "DISTRICT_I": 378, "BLOCK_ID": 2138, "HAB_ID": 1322550, "FACILITY_I": 895551, "FAC_DESC": "Harangajao Weekly Market", "FAC_CATEGO": "Agro" }, "geometry": { "type": "Point", "coordinates": [ 92.857818, 25.116039 ] } },
{ "type": "Feature", "properties": { "STATE_ID": 4, "DISTRICT_I": 378, "BLOCK_ID": 1648, "HAB_ID": 866684, "FACILITY_I": 918951, "FAC_DESC": "Bus Stand", "FAC_CATEGO": "Transport/Admin" }, "geometry": { "type": "Point", "coordinates": [ 92.913919, 25.736233 ] } },
{ "type": "Feature", "properties": { "STATE_ID": 4, "DISTRICT_I": 378, "BLOCK_ID": 1647, "HAB_ID": 620711, "FACILITY_I": 864101, "FAC_DESC": "Langting Bazaar", "FAC_CATEGO": "Agro" }, "geometry": { "type": "Point", "coordinates": [ 93.114863, 25.496005 ] } },
{ "type": "Feature", "properties": { "STATE_ID": 4, "DISTRICT_I": 378, "BLOCK_ID": 4283, "HAB_ID": 1073810, "FACILITY_I": 894581, "FAC_DESC": "Bank of India", "FAC_CATEGO": "Transport/Admin" }, "geometry": { "type": "Point", "coordinates": [ 92.737642, 25.511865 ] } },
{ "type": "Feature", "properties": { "STATE_ID": 4, "DISTRICT_I": 378, "BLOCK_ID": 1648, "HAB_ID": 1103909, "FACILITY_I": 920240, "FAC_DESC": "Sugar cane Processing  Unit", "FAC_CATEGO": "Agro" }, "geometry": { "type": "Point", "coordinates": [ 92.960752, 25.777305 ] } },
{ "type": "Feature", "properties": { "STATE_ID": 4, "DISTRICT_I": 378, "BLOCK_ID": 2460, "HAB_ID": 396006, "FACILITY_I": 956229, "FAC_DESC": "Hangrum Bus stand", "FAC_CATEGO": "Transport/Admin" }, "geometry": { "type": "Point", "coordinates": [ 93.302572, 25.140532 ] } },
{ "type": "Feature", "properties": { "STATE_ID": 4, "DISTRICT_I": 378, "BLOCK_ID": 2138, "HAB_ID": 1185582, "FACILITY_I": 896315, "FAC_DESC": "Assam Gramin Vikash Bank", "FAC_CATEGO": "Transport/Admin" }, "geometry": { "type": "Point", "coordinates": [ 93.015299, 25.172975 ] } },
{ "type": "Feature", "properties": { "STATE_ID": 4, "DISTRICT_I": 378, "BLOCK_ID": 2460, "HAB_ID": 651215, "FACILITY_I": 956658, "FAC_DESC": "Mahur Bus stand", "FAC_CATEGO": "Transport/Admin" }, "geometry": { "type": "Point", "coordinates": [ 93.116922, 25.17815 ] } },
{ "type": "Feature", "properties": { "STATE_ID": 4, "DISTRICT_I": 378, "BLOCK_ID": 2460, "HAB_ID": 560543, "FACILITY_I": 956747, "FAC_DESC": "Khuongluong High School", "FAC_CATEGO": "Education" }, "geometry": { "type": "Point", "coordinates": [ 93.12175, 25.039562 ] } },
{ "type": "Feature", "properties": { "STATE_ID": 4, "DISTRICT_I": 378, "BLOCK_ID": 1648, "HAB_ID": 866684, "FACILITY_I": 918954, "FAC_DESC": "Rice Mill", "FAC_CATEGO": "Agro" }, "geometry": { "type": "Point", "coordinates": [ 92.914327, 25.737191 ] } },
{ "type": "Feature", "properties": { "STATE_ID": 4, "DISTRICT_I": 378, "BLOCK_ID": 1647, "HAB_ID": 554288, "FACILITY_I": 863670, "FAC_DESC": "Janaring Hindi Academic High School", "FAC_CATEGO": "Education" }, "geometry": { "type": "Point", "coordinates": [ 93.132375, 25.343376 ] } },
{ "type": "Feature", "properties": { "STATE_ID": 4, "DISTRICT_I": 378, "BLOCK_ID": 2138, "HAB_ID": 631194, "FACILITY_I": 895583, "FAC_DESC": "LONGMANG HIGH SCHOOL", "FAC_CATEGO": "Education" }, "geometry": { "type": "Point", "coordinates": [ 93.008381, 25.182688 ] } },
{ "type": "Feature", "properties": { "STATE_ID": 4, "DISTRICT_I": 378, "BLOCK_ID": 1647, "HAB_ID": 1102146, "FACILITY_I": 909819, "FAC_DESC": "Wayungdisa Bus Stand", "FAC_CATEGO": "Transport/Admin" }, "geometry": { "type": "Point", "coordinates": [ 93.013895, 25.291228 ] } },
{ "type": "Feature", "properties": { "STATE_ID": 4, "DISTRICT_I": 378, "BLOCK_ID": 1647, "HAB_ID": 1320465, "FACILITY_I": 864245, "FAC_DESC": "Assam Gramin Vikash Bank Langting", "FAC_CATEGO": "Transport/Admin" }, "geometry": { "type": "Point", "coordinates": [ 93.115462, 25.496703 ] } },
{ "type": "Feature", "properties": { "STATE_ID": 4, "DISTRICT_I": 378, "BLOCK_ID": 2460, "HAB_ID": 788479, "FACILITY_I": 862548, "FAC_DESC": "Nomjang High School", "FAC_CATEGO": "Education" }, "geometry": { "type": "Point", "coordinates": [ 93.105571, 25.15851 ] } },
{ "type": "Feature", "properties": { "STATE_ID": 4, "DISTRICT_I": 378, "BLOCK_ID": 4283, "HAB_ID": 1318169, "FACILITY_I": 894304, "FAC_DESC": "Jirsong High School", "FAC_CATEGO": "Education" }, "geometry": { "type": "Point", "coordinates": [ 92.717465, 25.48052 ] } },
{ "type": "Feature", "properties": { "STATE_ID": 4, "DISTRICT_I": 378, "BLOCK_ID": 1648, "HAB_ID": 736264, "FACILITY_I": 914431, "FAC_DESC": "Bus Stand", "FAC_CATEGO": "Transport/Admin" }, "geometry": { "type": "Point", "coordinates": [ 92.941666, 25.585403 ] } },
{ "type": "Feature", "properties": { "STATE_ID": 4, "DISTRICT_I": 378, "BLOCK_ID": 1648, "HAB_ID": 888795, "FACILITY_I": 914449, "FAC_DESC": "Railing Bazar", "FAC_CATEGO": "Agro" }, "geometry": { "type": "Point", "coordinates": [ 92.916357, 25.662924 ] } },
{ "type": "Feature", "properties": { "STATE_ID": 4, "DISTRICT_I": 378, "BLOCK_ID": 1648, "HAB_ID": 888343, "FACILITY_I": 947337, "FAC_DESC": "sugar cane processing  unit", "FAC_CATEGO": "Agro" }, "geometry": { "type": "Point", "coordinates": [ 93.011972, 25.783835 ] } },
{ "type": "Feature", "properties": { "STATE_ID": 4, "DISTRICT_I": 378, "BLOCK_ID": 1647, "HAB_ID": 1103482, "FACILITY_I": 908093, "FAC_DESC": "Wari Bus Stand", "FAC_CATEGO": "Transport/Admin" }, "geometry": { "type": "Point", "coordinates": [ 93.011855, 25.287704 ] } },
{ "type": "Feature", "properties": { "STATE_ID": 4, "DISTRICT_I": 378, "BLOCK_ID": 1647, "HAB_ID": 418314, "FACILITY_I": 863555, "FAC_DESC": "HAJADISA HIGH SCHOOL", "FAC_CATEGO": "Education" }, "geometry": { "type": "Point", "coordinates": [ 93.293222, 25.379732 ] } },
{ "type": "Feature", "properties": { "STATE_ID": 4, "DISTRICT_I": 378, "BLOCK_ID": 1647, "HAB_ID": 554808, "FACILITY_I": 863573, "FAC_DESC": "KHEPRE HIGH SCHOOL", "FAC_CATEGO": "Education" }, "geometry": { "type": "Point", "coordinates": [ 93.360803, 25.439792 ] } },
{ "type": "Feature", "properties": { "STATE_ID": 4, "DISTRICT_I": 378, "BLOCK_ID": 4283, "HAB_ID": 1073810, "FACILITY_I": 894372, "FAC_DESC": "Vivekananda Kendriya Vidyala", "FAC_CATEGO": "Education" }, "geometry": { "type": "Point", "coordinates": [ 92.733405, 25.516268 ] } },
{ "type": "Feature", "properties": { "STATE_ID": 4, "DISTRICT_I": 378, "BLOCK_ID": 2138, "HAB_ID": 1185575, "FACILITY_I": 894375, "FAC_DESC": "Assam Gramin Vikash Bank", "FAC_CATEGO": "Transport/Admin" }, "geometry": { "type": "Point", "coordinates": [ 93.016174, 25.16952 ] } },
{ "type": "Feature", "properties": { "STATE_ID": 4, "DISTRICT_I": 378, "BLOCK_ID": 4283, "HAB_ID": 1073810, "FACILITY_I": 894576, "FAC_DESC": "Assam Gramin Bikash Bank", "FAC_CATEGO": "Transport/Admin" }, "geometry": { "type": "Point", "coordinates": [ 92.735038, 25.511778 ] } },
{ "type": "Feature", "properties": { "STATE_ID": 4, "DISTRICT_I": 378, "BLOCK_ID": 2460, "HAB_ID": 613745, "FACILITY_I": 875605, "FAC_DESC": "Laisong Bus Stand", "FAC_CATEGO": "Transport/Admin" }, "geometry": { "type": "Point", "coordinates": [ 93.302137, 25.207318 ] } },
{ "type": "Feature", "properties": { "STATE_ID": 4, "DISTRICT_I": 378, "BLOCK_ID": 1647, "HAB_ID": 527543, "FACILITY_I": 864224, "FAC_DESC": "Kautaibari", "FAC_CATEGO": "Transport/Admin" }, "geometry": { "type": "Point", "coordinates": [ 93.347651, 25.433915 ] } },
{ "type": "Feature", "properties": { "STATE_ID": 4, "DISTRICT_I": 378, "BLOCK_ID": 4283, "HAB_ID": 1073808, "FACILITY_I": 961955, "FAC_DESC": "Umrongso 14 km Bus Stand", "FAC_CATEGO": "Transport/Admin" }, "geometry": { "type": "Point", "coordinates": [ 92.752248, 25.504663 ] } },
{ "type": "Feature", "properties": { "STATE_ID": 4, "DISTRICT_I": 378, "BLOCK_ID": 2460, "HAB_ID": 391673, "FACILITY_I": 954867, "FAC_DESC": "Hagjer Bus stand", "FAC_CATEGO": "Transport/Admin" }, "geometry": { "type": "Point", "coordinates": [ 93.027009, 25.2563 ] } },
{ "type": "Feature", "properties": { "STATE_ID": 4, "DISTRICT_I": 378, "BLOCK_ID": 1647, "HAB_ID": 1320465, "FACILITY_I": 946213, "FAC_DESC": "Langting Bus Stand No 2", "FAC_CATEGO": "Transport/Admin" }, "geometry": { "type": "Point", "coordinates": [ 93.11021, 25.498394 ] } },
{ "type": "Feature", "properties": { "STATE_ID": 4, "DISTRICT_I": 378, "BLOCK_ID": 2138, "HAB_ID": 1185575, "FACILITY_I": 895546, "FAC_DESC": "Haflong Weekly Market", "FAC_CATEGO": "Agro" }, "geometry": { "type": "Point", "coordinates": [ 93.016663, 25.169377 ] } },
{ "type": "Feature", "properties": { "STATE_ID": 4, "DISTRICT_I": 378, "BLOCK_ID": 2138, "HAB_ID": 631194, "FACILITY_I": 895614, "FAC_DESC": "I T I  HAFLONG", "FAC_CATEGO": "Education" }, "geometry": { "type": "Point", "coordinates": [ 93.018946, 25.194598 ] } },
{ "type": "Feature", "properties": { "STATE_ID": 4, "DISTRICT_I": 378, "BLOCK_ID": 4283, "HAB_ID": 257838, "FACILITY_I": 962993, "FAC_DESC": "Bus Stand Dehangi", "FAC_CATEGO": "Transport/Admin" }, "geometry": { "type": "Point", "coordinates": [ 92.995535, 25.420735 ] } },
{ "type": "Feature", "properties": { "STATE_ID": 4, "DISTRICT_I": 378, "BLOCK_ID": 4283, "HAB_ID": 35064, "FACILITY_I": 962998, "FAC_DESC": "Bus Stand Amrudisa", "FAC_CATEGO": "Transport/Admin" }, "geometry": { "type": "Point", "coordinates": [ 92.92394, 25.441385 ] } },
{ "type": "Feature", "properties": { "STATE_ID": 4, "DISTRICT_I": 378, "BLOCK_ID": 2460, "HAB_ID": 959912, "FACILITY_I": 956616, "FAC_DESC": "Saron Bus stand", "FAC_CATEGO": "Transport/Admin" }, "geometry": { "type": "Point", "coordinates": [ 93.121073, 25.190471 ] } },
{ "type": "Feature", "properties": { "STATE_ID": 4, "DISTRICT_I": 378, "BLOCK_ID": 4283, "HAB_ID": 257838, "FACILITY_I": 956650, "FAC_DESC": "New Sangbar Development Block", "FAC_CATEGO": "Transport/Admin" }, "geometry": { "type": "Point", "coordinates": [ 92.996542, 25.424015 ] } },
{ "type": "Feature", "properties": { "STATE_ID": 4, "DISTRICT_I": 378, "BLOCK_ID": 1647, "HAB_ID": 1323567, "FACILITY_I": 864219, "FAC_DESC": "Longaokro", "FAC_CATEGO": "Transport/Admin" }, "geometry": { "type": "Point", "coordinates": [ 93.351015, 25.438975 ] } },
{ "type": "Feature", "properties": { "STATE_ID": 4, "DISTRICT_I": 378, "BLOCK_ID": 4283, "HAB_ID": 1073808, "FACILITY_I": 899285, "FAC_DESC": "Sacred Heart High School", "FAC_CATEGO": "Education" }, "geometry": { "type": "Point", "coordinates": [ 92.752248, 25.503793 ] } },
{ "type": "Feature", "properties": { "STATE_ID": 4, "DISTRICT_I": 378, "BLOCK_ID": 1647, "HAB_ID": 527543, "FACILITY_I": 863921, "FAC_DESC": "Saraswati Vidya Mandir High School", "FAC_CATEGO": "Education" }, "geometry": { "type": "Point", "coordinates": [ 93.349994, 25.433908 ] } },
{ "type": "Feature", "properties": { "STATE_ID": 4, "DISTRICT_I": 378, "BLOCK_ID": 4283, "HAB_ID": 1073810, "FACILITY_I": 894346, "FAC_DESC": "Umrongso Royal Academy", "FAC_CATEGO": "Education" }, "geometry": { "type": "Point", "coordinates": [ 92.735368, 25.51022 ] } },
{ "type": "Feature", "properties": { "STATE_ID": 4, "DISTRICT_I": 378, "BLOCK_ID": 2138, "HAB_ID": 1185575, "FACILITY_I": 894537, "FAC_DESC": "State Bank Of India", "FAC_CATEGO": "Transport/Admin" }, "geometry": { "type": "Point", "coordinates": [ 93.018278, 25.167287 ] } },
{ "type": "Feature", "properties": { "STATE_ID": 4, "DISTRICT_I": 378, "BLOCK_ID": 1648, "HAB_ID": 669095, "FACILITY_I": 920235, "FAC_DESC": "Bus Stand", "FAC_CATEGO": "Transport/Admin" }, "geometry": { "type": "Point", "coordinates": [ 92.93301, 25.775181 ] } },
{ "type": "Feature", "properties": { "STATE_ID": 4, "DISTRICT_I": 378, "BLOCK_ID": 1647, "HAB_ID": 651709, "FACILITY_I": 864232, "FAC_DESC": "State Bank of India  Maibang Branch", "FAC_CATEGO": "Transport/Admin" }, "geometry": { "type": "Point", "coordinates": [ 93.133969, 25.304683 ] } },
{ "type": "Feature", "properties": { "STATE_ID": 4, "DISTRICT_I": 378, "BLOCK_ID": 2138, "HAB_ID": 1185575, "FACILITY_I": 895601, "FAC_DESC": "JATINGA HIGH SCHOOL", "FAC_CATEGO": "Education" }, "geometry": { "type": "Point", "coordinates": [ 93.025063, 25.127775 ] } },
{ "type": "Feature", "properties": { "STATE_ID": 4, "DISTRICT_I": 378, "BLOCK_ID": 1647, "HAB_ID": 669176, "FACILITY_I": 863581, "FAC_DESC": "MANDERDISA HIGH SCHOOL", "FAC_CATEGO": "Education" }, "geometry": { "type": "Point", "coordinates": [ 93.136017, 25.74109 ] } },
{ "type": "Feature", "properties": { "STATE_ID": 4, "DISTRICT_I": 378, "BLOCK_ID": 1648, "HAB_ID": 304186, "FACILITY_I": 914402, "FAC_DESC": "Bus Stand", "FAC_CATEGO": "Transport/Admin" }, "geometry": { "type": "Point", "coordinates": [ 92.958017, 25.497859 ] } }
]
}
