{
"type": "FeatureCollection",
"name": "connectors",
"crs": { "type": "name", "properties": { "name": "urn:ogc:def:crs:OGC:1.3:CRS84" } },
"xy_coordinate_resolution": 1e-06,
"features": [
{ "type": "Feature", "properties": { "length_m": 1.9 }, "geometry": { "type": "LineString", "coordinates": [ [ 93.188033, 25.2328 ], [ 93.188023, 25.232815 ] ] } },
{ "type": "Feature", "properties": { "length_m": 2.2 }, "geometry": { "type": "LineString", "coordinates": [ [ 92.951533, 25.23381 ], [ 92.951554, 25.233814 ] ] } },
{ "type": "Feature", "properties": { "length_m": 26.3 }, "geometry": { "type": "LineString", "coordinates": [ [ 92.838232, 25.124872 ], [ 92.838138, 25.124651 ] ] } },
{ "type": "Feature", "properties": { "length_m": 17.6 }, "geometry": { "type": "LineString", "coordinates": [ [ 92.891081, 25.594611 ], [ 92.891168, 25.594748 ] ] } },
{ "type": "Feature", "properties": { "length_m": 0.8 }, "geometry": { "type": "LineString", "coordinates": [ [ 93.003621, 25.216964 ], [ 93.003629, 25.216964 ] ] } },
{ "type": "Feature", "properties": { "length_m": 18.7 }, "geometry": { "type": "LineString", "coordinates": [ [ 93.121664, 25.381619 ], [ 93.121801, 25.381732 ] ] } },
{ "type": "Feature", "properties": { "length_m": 0.9 }, "geometry": { "type": "LineString", "coordinates": [ [ 92.998561, 25.147456 ], [ 92.998554, 25.147461 ] ] } },
{ "type": "Feature", "properties": { "length_m": 1.6 }, "geometry": { "type": "LineString", "coordinates": [ [ 93.006254, 25.149753 ], [ 93.006249, 25.149739 ] ] } },
{ "type": "Feature", "properties": { "length_m": 9.4 }, "geometry": { "type": "LineString", "coordinates": [ [ 92.924967, 25.480524 ], [ 92.924884, 25.480484 ] ] } },
{ "type": "Feature", "properties": { "length_m": 3.0 }, "geometry": { "type": "LineString", "coordinates": [ [ 92.854161, 25.108245 ], [ 92.854163, 25.108272 ] ] } },
{ "type": "Feature", "properties": { "length_m": 1.2 }, "geometry": { "type": "LineString", "coordinates": [ [ 93.026976, 25.261172 ], [ 93.026964, 25.261174 ] ] } },
{ "type": "Feature", "properties": { "length_m": 1.2 }, "geometry": { "type": "LineString", "coordinates": [ [ 93.201927, 25.185996 ], [ 93.201916, 25.186002 ] ] } },
{ "type": "Feature", "properties": { "length_m": 17.8 }, "geometry": { "type": "LineString", "coordinates": [ [ 93.139236, 25.204919 ], [ 93.139114, 25.205035 ] ] } },
{ "type": "Feature", "properties": { "length_m": 1.0 }, "geometry": { "type": "LineString", "coordinates": [ [ 93.291056, 25.096538 ], [ 93.291065, 25.096537 ] ] } },
{ "type": "Feature", "properties": { "length_m": 1.6 }, "geometry": { "type": "LineString", "coordinates": [ [ 92.798986, 25.55228 ], [ 92.798999, 25.552272 ] ] } },
{ "type": "Feature", "properties": { "length_m": 1.0 }, "geometry": { "type": "LineString", "coordinates": [ [ 93.017588, 25.133031 ], [ 93.017598, 25.133032 ] ] } },
{ "type": "Feature", "properties": { "length_m": 19.1 }, "geometry": { "type": "LineString", "coordinates": [ [ 93.173186, 25.238729 ], [ 93.173082, 25.238584 ] ] } },
{ "type": "Feature", "properties": { "length_m": 6.3 }, "geometry": { "type": "LineString", "coordinates": [ [ 93.247659, 25.356488 ], [ 93.24761, 25.356523 ] ] } },
{ "type": "Feature", "properties": { "length_m": 1.4 }, "geometry": { "type": "LineString", "coordinates": [ [ 92.923445, 25.109219 ], [ 92.923442, 25.109207 ] ] } },
{ "type": "Feature", "properties": { "length_m": 1.2 }, "geometry": { "type": "LineString", "coordinates": [ [ 92.917853, 25.110774 ], [ 92.917852, 25.110763 ] ] } },
{ "type": "Feature", "properties": { "length_m": 9.7 }, "geometry": { "type": "LineString", "coordinates": [ [ 92.924876, 25.480495 ], [ 92.924967, 25.480524 ] ] } },
{ "type": "Feature", "properties": { "length_m": 6.3 }, "geometry": { "type": "LineString", "coordinates": [ [ 92.842932, 25.107903 ], [ 92.842957, 25.10785 ] ] } },
{ "type": "Feature", "properties": { "length_m": 2.2 }, "geometry": { "type": "LineString", "coordinates": [ [ 93.168472, 25.217575 ], [ 93.168479, 25.217594 ] ] } },
{ "type": "Feature", "properties": { "length_m": 2.8 }, "geometry": { "type": "LineString", "coordinates": [ [ 92.919419, 25.292797 ], [ 92.919435, 25.292776 ] ] } },
{ "type": "Feature", "properties": { "length_m": 3.5 }, "geometry": { "type": "LineString", "coordinates": [ [ 92.841188, 25.102771 ], [ 92.841155, 25.102778 ] ] } },
{ "type": "Feature", "properties": { "length_m": 1.6 }, "geometry": { "type": "LineString", "coordinates": [ [ 93.006249, 25.149739 ], [ 93.006254, 25.149753 ] ] } },
{ "type": "Feature", "properties": { "length_m": 2.0 }, "geometry": { "type": "LineString", "coordinates": [ [ 93.169875, 25.329223 ], [ 93.169875, 25.329205 ] ] } },
{ "type": "Feature", "properties": { "length_m": 13.4 }, "geometry": { "type": "LineString", "coordinates": [ [ 93.133804, 25.397926 ], [ 93.133702, 25.398004 ] ] } },
{ "type": "Feature", "properties": { "length_m": 0.5 }, "geometry": { "type": "LineString", "coordinates": [ [ 93.015166, 25.170208 ], [ 93.015161, 25.170207 ] ] } },
{ "type": "Feature", "properties": { "length_m": 1.1 }, "geometry": { "type": "LineString", "coordinates": [ [ 93.020064, 25.188472 ], [ 93.020058, 25.188464 ] ] } },
{ "type": "Feature", "properties": { "length_m": 1.9 }, "geometry": { "type": "LineString", "coordinates": [ [ 93.146328, 25.175142 ], [ 93.146346, 25.175147 ] ] } },
{ "type": "Feature", "properties": { "length_m": 4.4 }, "geometry": { "type": "LineString", "coordinates": [ [ 93.296458, 25.293498 ], [ 93.296428, 25.293468 ] ] } },
{ "type": "Feature", "properties": { "length_m": 4.4 }, "geometry": { "type": "LineString", "coordinates": [ [ 93.296428, 25.293468 ], [ 93.296458, 25.293498 ] ] } },
{ "type": "Feature", "properties": { "length_m": 9.2 }, "geometry": { "type": "LineString", "coordinates": [ [ 92.777289, 25.609407 ], [ 92.777288, 25.609324 ] ] } },
{ "type": "Feature", "properties": { "length_m": 1.6 }, "geometry": { "type": "LineString", "coordinates": [ [ 92.798999, 25.552272 ], [ 92.798986, 25.55228 ] ] } },
{ "type": "Feature", "properties": { "length_m": 25.1 }, "geometry": { "type": "LineString", "coordinates": [ [ 93.025348, 25.125915 ], [ 93.025346, 25.126142 ] ] } },
{ "type": "Feature", "properties": { "length_m": 3.8 }, "geometry": { "type": "LineString", "coordinates": [ [ 92.964503, 25.480829 ], [ 92.964516, 25.480861 ] ] } },
{ "type": "Feature", "properties": { "length_m": 9.2 }, "geometry": { "type": "LineString", "coordinates": [ [ 92.777288, 25.609324 ], [ 92.777289, 25.609407 ] ] } },
{ "type": "Feature", "properties": { "length_m": 1.2 }, "geometry": { "type": "LineString", "coordinates": [ [ 92.930772, 25.239581 ], [ 92.930766, 25.239571 ] ] } },
{ "type": "Feature", "properties": { "length_m": 0.8 }, "geometry": { "type": "LineString", "coordinates": [ [ 93.008727, 25.239289 ], [ 93.008735, 25.239289 ] ] } },
{ "type": "Feature", "properties": { "length_m": 4.0 }, "geometry": { "type": "LineString", "coordinates": [ [ 92.954985, 25.762724 ], [ 92.954954, 25.7627 ] ] } },
{ "type": "Feature", "properties": { "length_m": 6.6 }, "geometry": { "type": "LineString", "coordinates": [ [ 93.003907, 25.417142 ], [ 93.003972, 25.417136 ] ] } },
{ "type": "Feature", "properties": { "length_m": 0.5 }, "geometry": { "type": "LineString", "coordinates": [ [ 93.021401, 25.270143 ], [ 93.021398, 25.270139 ] ] } },
{ "type": "Feature", "properties": { "length_m": 6.6 }, "geometry": { "type": "LineString", "coordinates": [ [ 93.003972, 25.417136 ], [ 93.003907, 25.417142 ] ] } },
{ "type": "Feature", "properties": { "length_m": 5.7 }, "geometry": { "type": "LineString", "coordinates": [ [ 92.85883, 25.116765 ], [ 92.858775, 25.116753 ] ] } },
{ "type": "Feature", "properties": { "length_m": 2.3 }, "geometry": { "type": "LineString", "coordinates": [ [ 92.873783, 25.118552 ], [ 92.873799, 25.118538 ] ] } },
{ "type": "Feature", "properties": { "length_m": 7.4 }, "geometry": { "type": "LineString", "coordinates": [ [ 93.015781, 25.275086 ], [ 93.015833, 25.275133 ] ] } },
{ "type": "Feature", "properties": { "length_m": 1.8 }, "geometry": { "type": "LineString", "coordinates": [ [ 92.889239, 25.103443 ], [ 92.889249, 25.103457 ] ] } },
{ "type": "Feature", "properties": { "length_m": 1.8 }, "geometry": { "type": "LineString", "coordinates": [ [ 92.828119, 25.101061 ], [ 92.828101, 25.101059 ] ] } },
{ "type": "Feature", "properties": { "length_m": 5.0 }, "geometry": { "type": "LineString", "coordinates": [ [ 92.978109, 25.1316 ], [ 92.978081, 25.131563 ] ] } },
{ "type": "Feature", "properties": { "length_m": 7.4 }, "geometry": { "type": "LineString", "coordinates": [ [ 93.021419, 25.194104 ], [ 93.021419, 25.194037 ] ] } },
{ "type": "Feature", "properties": { "length_m": 8.8 }, "geometry": { "type": "LineString", "coordinates": [ [ 93.026919, 25.256361 ], [ 93.026959, 25.256431 ] ] } },
{ "type": "Feature", "properties": { "length_m": 4.7 }, "geometry": { "type": "LineString", "coordinates": [ [ 93.025323, 25.126179 ], [ 93.025346, 25.126142 ] ] } },
{ "type": "Feature", "properties": { "length_m": 0.5 }, "geometry": { "type": "LineString", "coordinates": [ [ 92.85506, 25.118797 ], [ 92.855062, 25.118793 ] ] } },
{ "type": "Feature", "properties": { "length_m": 4.7 }, "geometry": { "type": "LineString", "coordinates": [ [ 93.025346, 25.126142 ], [ 93.025323, 25.126179 ] ] } },
{ "type": "Feature", "properties": { "length_m": 22.5 }, "geometry": { "type": "LineString", "coordinates": [ [ 92.789495, 25.387921 ], [ 92.789298, 25.388016 ] ] } },
{ "type": "Feature", "properties": { "length_m": 1.4 }, "geometry": { "type": "LineString", "coordinates": [ [ 92.840629, 25.105329 ], [ 92.840642, 25.105325 ] ] } },
{ "type": "Feature", "properties": { "length_m": 0.8 }, "geometry": { "type": "LineString", "coordinates": [ [ 93.021351, 25.156143 ], [ 93.021358, 25.156143 ] ] } },
{ "type": "Feature", "properties": { "length_m": 1.3 }, "geometry": { "type": "LineString", "coordinates": [ [ 93.019895, 25.188672 ], [ 93.019889, 25.188662 ] ] } },
{ "type": "Feature", "properties": { "length_m": 2.3 }, "geometry": { "type": "LineString", "coordinates": [ [ 93.019109, 25.131302 ], [ 93.019117, 25.131322 ] ] } },
{ "type": "Feature", "properties": { "length_m": 4.5 }, "geometry": { "type": "LineString", "coordinates": [ [ 92.860028, 25.120504 ], [ 92.860012, 25.120541 ] ] } },
{ "type": "Feature", "properties": { "length_m": 3.5 }, "geometry": { "type": "LineString", "coordinates": [ [ 92.992851, 25.108084 ], [ 92.992867, 25.108111 ] ] } },
{ "type": "Feature", "properties": { "length_m": 2.1 }, "geometry": { "type": "LineString", "coordinates": [ [ 92.828964, 25.096538 ], [ 92.828972, 25.09652 ] ] } },
{ "type": "Feature", "properties": { "length_m": 1.8 }, "geometry": { "type": "LineString", "coordinates": [ [ 92.828101, 25.101059 ], [ 92.828119, 25.101061 ] ] } },
{ "type": "Feature", "properties": { "length_m": 1.7 }, "geometry": { "type": "LineString", "coordinates": [ [ 92.981047, 25.215503 ], [ 92.981049, 25.215518 ] ] } },
{ "type": "Feature", "properties": { "length_m": 1.8 }, "geometry": { "type": "LineString", "coordinates": [ [ 92.915559, 25.110568 ], [ 92.915559, 25.110552 ] ] } },
{ "type": "Feature", "properties": { "length_m": 1.0 }, "geometry": { "type": "LineString", "coordinates": [ [ 92.964448, 25.113665 ], [ 92.964449, 25.113655 ] ] } },
{ "type": "Feature", "properties": { "length_m": 0.9 }, "geometry": { "type": "LineString", "coordinates": [ [ 92.800919, 25.095205 ], [ 92.800926, 25.0952 ] ] } },
{ "type": "Feature", "properties": { "length_m": 3.4 }, "geometry": { "type": "LineString", "coordinates": [ [ 92.894883, 25.110403 ], [ 92.894863, 25.110428 ] ] } },
{ "type": "Feature", "properties": { "length_m": 2.3 }, "geometry": { "type": "LineString", "coordinates": [ [ 92.873799, 25.118538 ], [ 92.873783, 25.118552 ] ] } },
{ "type": "Feature", "properties": { "length_m": 0.9 }, "geometry": { "type": "LineString", "coordinates": [ [ 92.9541, 25.22222 ], [ 92.954104, 25.222227 ] ] } },
{ "type": "Feature", "properties": { "length_m": 0.9 }, "geometry": { "type": "LineString", "coordinates": [ [ 92.828489, 25.097324 ], [ 92.828496, 25.097329 ] ] } },
{ "type": "Feature", "properties": { "length_m": 0.7 }, "geometry": { "type": "LineString", "coordinates": [ [ 92.828641, 25.09899 ], [ 92.828647, 25.09899 ] ] } },
{ "type": "Feature", "properties": { "length_m": 0.9 }, "geometry": { "type": "LineString", "coordinates": [ [ 93.019525, 25.156556 ], [ 93.019528, 25.156563 ] ] } },
{ "type": "Feature", "properties": { "length_m": 0.7 }, "geometry": { "type": "LineString", "coordinates": [ [ 93.013231, 25.161978 ], [ 93.013238, 25.161978 ] ] } },
{ "type": "Feature", "properties": { "length_m": 1.0 }, "geometry": { "type": "LineString", "coordinates": [ [ 93.014477, 25.174063 ], [ 93.014488, 25.174063 ] ] } },
{ "type": "Feature", "properties": { "length_m": 1.4 }, "geometry": { "type": "LineString", "coordinates": [ [ 92.856404, 25.114632 ], [ 92.85639, 25.114633 ] ] } },
{ "type": "Feature", "properties": { "length_m": 10.5 }, "geometry": { "type": "LineString", "coordinates": [ [ 92.857096, 25.116349 ], [ 92.85703, 25.116276 ] ] } },
{ "type": "Feature", "properties": { "length_m": 8.8 }, "geometry": { "type": "LineString", "coordinates": [ [ 93.098516, 25.351981 ], [ 93.098601, 25.351964 ] ] } },
{ "type": "Feature", "properties": { "length_m": 1.6 }, "geometry": { "type": "LineString", "coordinates": [ [ 92.886328, 25.119724 ], [ 92.886331, 25.11971 ] ] } },
{ "type": "Feature", "properties": { "length_m": 0.5 }, "geometry": { "type": "LineString", "coordinates": [ [ 93.002243, 25.161006 ], [ 93.002245, 25.16101 ] ] } },
{ "type": "Feature", "properties": { "length_m": 1.7 }, "geometry": { "type": "LineString", "coordinates": [ [ 93.011208, 25.169474 ], [ 93.011214, 25.169488 ] ] } },
{ "type": "Feature", "properties": { "length_m": 0.8 }, "geometry": { "type": "LineString", "coordinates": [ [ 93.005016, 25.221736 ], [ 93.005023, 25.221734 ] ] } }
]
}
