{
"type": "FeatureCollection",
"name": "routes_normal",
"crs": { "type": "name", "properties": { "name": "urn:ogc:def:crs:OGC:1.3:CRS84" } },
"xy_coordinate_resolution": 1e-06,
"features": [
{ "type": "Feature", "properties": { "facility": "Veterinary dispensary [894420]", "minutes": 429.7, "scenario": "normal" }, "geometry": { "type": "LineString", "coordinates": [ [ 93.019992, 25.183735 ], [ 93.017598, 25.133033 ], [ 93.024545, 25.129603 ], [ 93.025323, 25.12618 ], [ 93.025346, 25.126142 ], [ 93.042483, 25.132269 ], [ 93.09953, 25.185798 ], [ 93.113608, 25.178062 ], [ 93.115191, 25.177228 ], [ 93.116707, 25.178465 ], [ 93.12143, 25.176709 ], [ 93.177521, 25.181727 ], [ 93.168479, 25.217595 ], [ 93.164124, 25.226931 ], [ 93.164099, 25.227057 ], [ 93.173082, 25.238584 ], [ 93.188033, 25.2328 ], [ 93.188023, 25.232815 ], [ 93.184445, 25.246901 ], [ 93.199502, 25.260083 ], [ 93.205144, 25.264916 ], [ 93.187217, 25.267544 ], [ 93.169223, 25.276232 ], [ 93.146764, 25.29007 ], [ 93.141715, 25.298241 ], [ 93.13758, 25.301318 ], [ 93.136128, 25.297493 ], [ 93.136378, 25.293283 ], [ 93.133689, 25.295451 ], [ 93.126224, 25.317769 ], [ 93.125852, 25.31968 ], [ 93.112907, 25.316013 ], [ 93.098827, 25.314204 ], [ 93.08029, 25.323611 ], [ 93.070219, 25.318267 ], [ 93.031556, 25.32299 ], [ 93.024808, 25.320677 ], [ 93.008546, 25.317844 ], [ 92.993842, 25.332649 ], [ 92.990517, 25.335101 ], [ 92.988563, 25.349311 ], [ 92.979849, 25.359287 ], [ 92.984073, 25.367944 ], [ 92.984121, 25.368014 ], [ 92.9867, 25.391663 ], [ 93.003972, 25.417136 ], [ 93.003907, 25.417142 ], [ 93.002113, 25.419996 ], [ 92.995427, 25.420885 ], [ 92.989854, 25.419003 ], [ 92.963956, 25.442234 ], [ 92.952881, 25.438621 ], [ 92.938028, 25.430071 ], [ 92.924111, 25.441165 ], [ 92.924032, 25.441307 ], [ 92.864999, 25.407512 ], [ 92.824142, 25.411745 ], [ 92.804703, 25.418356 ], [ 92.79371, 25.415205 ] ] } },
{ "type": "Feature", "properties": { "facility": "Veterinary Firsy Aid Centre [863740]", "minutes": 409.0, "scenario": "normal" }, "geometry": { "type": "LineString", "coordinates": [ [ 93.019992, 25.183735 ], [ 93.017598, 25.133033 ], [ 93.024545, 25.129603 ], [ 93.025323, 25.12618 ], [ 93.025346, 25.126142 ], [ 93.042483, 25.132269 ], [ 93.09953, 25.185798 ], [ 93.113608, 25.178062 ], [ 93.115191, 25.177228 ], [ 93.116707, 25.178465 ], [ 93.12143, 25.176709 ], [ 93.177521, 25.181727 ], [ 93.168479, 25.217595 ], [ 93.164124, 25.226931 ], [ 93.164099, 25.227057 ], [ 93.173082, 25.238584 ], [ 93.188033, 25.2328 ], [ 93.188023, 25.232815 ], [ 93.184445, 25.246901 ], [ 93.199502, 25.260083 ], [ 93.205144, 25.264916 ], [ 93.187217, 25.267544 ], [ 93.169223, 25.276232 ], [ 93.146764, 25.29007 ], [ 93.141715, 25.298241 ], [ 93.13758, 25.301318 ], [ 93.136128, 25.297493 ], [ 93.136378, 25.293283 ], [ 93.133689, 25.295451 ], [ 93.126224, 25.317769 ], [ 93.125852, 25.31968 ], [ 93.112907, 25.316013 ], [ 93.098827, 25.314204 ], [ 93.08029, 25.323611 ], [ 93.070219, 25.318267 ], [ 93.031556, 25.32299 ], [ 93.024808, 25.320677 ], [ 93.008546, 25.317844 ], [ 92.993842, 25.332649 ], [ 92.990517, 25.335101 ], [ 92.988563, 25.349311 ], [ 92.979849, 25.359287 ], [ 92.984073, 25.367944 ], [ 92.984121, 25.368014 ], [ 92.9867, 25.391663 ], [ 93.003972, 25.417136 ], [ 93.003907, 25.417142 ], [ 93.002113, 25.419996 ], [ 92.995427, 25.420885 ], [ 92.989854, 25.419003 ], [ 92.987502, 25.44617 ], [ 92.964503, 25.480829 ], [ 92.964515, 25.480861 ], [ 92.956844, 25.485618 ], [ 92.956197, 25.485773 ], [ 92.964449, 25.502781 ], [ 92.965783, 25.505621 ], [ 92.974426, 25.545885 ], [ 92.973046, 25.547187 ], [ 92.969964, 25.558885 ], [ 92.970124, 25.559397 ], [ 92.970342, 25.560199 ] ] } },
{ "type": "Feature", "properties": { "facility": "HARANGAJAO MPHC [895557]", "minutes": 73.6, "scenario": "normal" }, "geometry": { "type": "LineString", "coordinates": [ [ 93.019992, 25.183735 ], [ 93.017598, 25.133033 ], [ 93.024545, 25.129603 ], [ 93.025323, 25.12618 ], [ 93.025346, 25.126142 ], [ 93.025348, 25.125915 ], [ 92.992868, 25.108111 ], [ 92.964448, 25.113655 ], [ 92.92251, 25.109359 ], [ 92.89485, 25.11042 ], [ 92.889249, 25.103457 ], [ 92.854139, 25.10827 ], [ 92.85639, 25.114633 ] ] } },
{ "type": "Feature", "properties": { "facility": "Hajadisa SHC [863991]", "minutes": 277.9, "scenario": "normal" }, "geometry": { "type": "LineString", "coordinates": [ [ 93.019992, 25.183735 ], [ 93.017598, 25.133033 ], [ 93.024545, 25.129603 ], [ 93.025323, 25.12618 ], [ 93.025346, 25.126142 ], [ 93.042483, 25.132269 ], [ 93.09953, 25.185798 ], [ 93.113608, 25.178062 ], [ 93.115191, 25.177228 ], [ 93.116707, 25.178465 ], [ 93.12143, 25.176709 ], [ 93.177521, 25.181727 ], [ 93.168479, 25.217595 ], [ 93.164124, 25.226931 ], [ 93.164099, 25.227057 ], [ 93.173082, 25.238584 ], [ 93.188033, 25.2328 ], [ 93.188023, 25.232815 ], [ 93.184445, 25.246901 ], [ 93.199502, 25.260083 ], [ 93.205144, 25.264916 ], [ 93.222817, 25.268315 ], [ 93.234554, 25.272339 ], [ 93.242354, 25.279559 ], [ 93.28115, 25.28279 ], [ 93.289563, 25.283728 ], [ 93.296429, 25.293468 ], [ 93.296458, 25.293498 ], [ 93.301849, 25.296225 ], [ 93.337651, 25.323116 ], [ 93.31156, 25.364859 ], [ 93.309581, 25.36665 ], [ 93.306192, 25.370169 ], [ 93.303532, 25.373451 ], [ 93.303302, 25.373643 ], [ 93.295837, 25.380141 ] ] } },
{ "type": "Feature", "properties": { "facility": "Veterinary Firsy Aid Centre [895569]", "minutes": 54.3, "scenario": "normal" }, "geometry": { "type": "LineString", "coordinates": [ [ 93.019992, 25.183735 ], [ 93.012657, 25.201024 ], [ 93.003628, 25.216964 ], [ 93.005023, 25.221734 ], [ 93.005025, 25.221744 ], [ 92.972676, 25.205811 ], [ 92.965142, 25.203357 ], [ 92.965139, 25.203358 ] ] } },
{ "type": "Feature", "properties": { "facility": "State Veterinary Dispensary [899262]", "minutes": 472.0, "scenario": "normal" }, "geometry": { "type": "LineString", "coordinates": [ [ 93.019992, 25.183735 ], [ 93.017598, 25.133033 ], [ 93.024545, 25.129603 ], [ 93.025323, 25.12618 ], [ 93.025346, 25.126142 ], [ 93.042483, 25.132269 ], [ 93.09953, 25.185798 ], [ 93.113608, 25.178062 ], [ 93.115191, 25.177228 ], [ 93.116707, 25.178465 ], [ 93.12143, 25.176709 ], [ 93.177521, 25.181727 ], [ 93.168479, 25.217595 ], [ 93.164124, 25.226931 ], [ 93.164099, 25.227057 ], [ 93.173082, 25.238584 ], [ 93.188033, 25.2328 ], [ 93.188023, 25.232815 ], [ 93.184445, 25.246901 ], [ 93.199502, 25.260083 ], [ 93.205144, 25.264916 ], [ 93.187217, 25.267544 ], [ 93.169223, 25.276232 ], [ 93.146764, 25.29007 ], [ 93.141715, 25.298241 ], [ 93.13758, 25.301318 ], [ 93.136128, 25.297493 ], [ 93.136378, 25.293283 ], [ 93.133689, 25.295451 ], [ 93.126224, 25.317769 ], [ 93.125852, 25.31968 ], [ 93.112907, 25.316013 ], [ 93.098827, 25.314204 ], [ 93.08029, 25.323611 ], [ 93.070219, 25.318267 ], [ 93.031556, 25.32299 ], [ 93.024808, 25.320677 ], [ 93.008546, 25.317844 ], [ 92.993842, 25.332649 ], [ 92.990517, 25.335101 ], [ 92.988563, 25.349311 ], [ 92.979849, 25.359287 ], [ 92.984073, 25.367944 ], [ 92.984121, 25.368014 ], [ 92.9867, 25.391663 ], [ 93.003972, 25.417136 ], [ 93.003907, 25.417142 ], [ 93.002113, 25.419996 ], [ 92.995427, 25.420885 ], [ 92.989854, 25.419003 ], [ 92.963956, 25.442234 ], [ 92.952881, 25.438621 ], [ 92.938028, 25.430071 ], [ 92.924111, 25.441165 ], [ 92.924032, 25.441307 ], [ 92.864999, 25.407512 ], [ 92.824142, 25.411745 ], [ 92.804703, 25.418356 ], [ 92.79371, 25.415205 ], [ 92.792713, 25.413165 ], [ 92.792135, 25.412703 ], [ 92.732694, 25.442582 ], [ 92.733945, 25.461988 ], [ 92.725185, 25.484047 ], [ 92.723697, 25.486578 ], [ 92.723085, 25.488285 ], [ 92.723702, 25.492464 ], [ 92.723706, 25.492533 ], [ 92.725692, 25.497187 ], [ 92.728368, 25.499093 ], [ 92.729254, 25.499654 ], [ 92.72998, 25.500181 ], [ 92.732419, 25.504021 ], [ 92.732578, 25.506177 ], [ 92.732627, 25.506927 ], [ 92.732657, 25.507494 ], [ 92.732836, 25.50859 ], [ 92.73282, 25.51073 ], [ 92.734587, 25.512083 ], [ 92.736123, 25.512042 ], [ 92.737259, 25.511862 ], [ 92.742283, 25.512068 ], [ 92.747052, 25.509023 ], [ 92.751555, 25.505083 ] ] } },
{ "type": "Feature", "properties": { "facility": "MODEL HOSPITAL LANGTING [917666]", "minutes": 265.0, "scenario": "normal" }, "geometry": { "type": "LineString", "coordinates": [ [ 93.019992, 25.183735 ], [ 93.017598, 25.133033 ], [ 93.024545, 25.129603 ], [ 93.025323, 25.12618 ], [ 93.025346, 25.126142 ], [ 93.042483, 25.132269 ], [ 93.09953, 25.185798 ], [ 93.113608, 25.178062 ], [ 93.115191, 25.177228 ], [ 93.116707, 25.178465 ], [ 93.12143, 25.176709 ], [ 93.177521, 25.181727 ], [ 93.168479, 25.217595 ], [ 93.164124, 25.226931 ], [ 93.164099, 25.227057 ], [ 93.173082, 25.238584 ], [ 93.188033, 25.2328 ], [ 93.188023, 25.232815 ], [ 93.184445, 25.246901 ], [ 93.199502, 25.260083 ], [ 93.205144, 25.264916 ], [ 93.187217, 25.267544 ], [ 93.169223, 25.276232 ], [ 93.146764, 25.29007 ], [ 93.141715, 25.298241 ], [ 93.13758, 25.301318 ], [ 93.136128, 25.297493 ], [ 93.136378, 25.293283 ], [ 93.133689, 25.295451 ], [ 93.126224, 25.317769 ], [ 93.125852, 25.31968 ], [ 93.12986, 25.322671 ], [ 93.13229, 25.326696 ], [ 93.130764, 25.332878 ], [ 93.127851, 25.337703 ], [ 93.131828, 25.339704 ], [ 93.133003, 25.340896 ], [ 93.139061, 25.350507 ], [ 93.139294, 25.353478 ], [ 93.143891, 25.36633 ], [ 93.14369, 25.470407 ], [ 93.145022, 25.478615 ], [ 93.135632, 25.490835 ], [ 93.114366, 25.496359 ], [ 93.115705, 25.500146 ], [ 93.115922, 25.502948 ], [ 93.112376, 25.509454 ] ] } },
{ "type": "Feature", "properties": { "facility": "Khepre PHC [863993]", "minutes": 318.4, "scenario": "normal" }, "geometry": { "type": "LineString", "coordinates": [ [ 93.019992, 25.183735 ], [ 93.017598, 25.133033 ], [ 93.024545, 25.129603 ], [ 93.025323, 25.12618 ], [ 93.025346, 25.126142 ], [ 93.042483, 25.132269 ], [ 93.09953, 25.185798 ], [ 93.113608, 25.178062 ], [ 93.115191, 25.177228 ], [ 93.116707, 25.178465 ], [ 93.12143, 25.176709 ], [ 93.177521, 25.181727 ], [ 93.168479, 25.217595 ], [ 93.164124, 25.226931 ], [ 93.164099, 25.227057 ], [ 93.173082, 25.238584 ], [ 93.188033, 25.2328 ], [ 93.188023, 25.232815 ], [ 93.184445, 25.246901 ], [ 93.199502, 25.260083 ], [ 93.205144, 25.264916 ], [ 93.187217, 25.267544 ], [ 93.169223, 25.276232 ], [ 93.146764, 25.29007 ], [ 93.141715, 25.298241 ], [ 93.13758, 25.301318 ], [ 93.136128, 25.297493 ], [ 93.136378, 25.293283 ], [ 93.133689, 25.295451 ], [ 93.126224, 25.317769 ], [ 93.125852, 25.31968 ], [ 93.12986, 25.322671 ], [ 93.13229, 25.326696 ], [ 93.130764, 25.332878 ], [ 93.127851, 25.337703 ], [ 93.131828, 25.339704 ], [ 93.133003, 25.340896 ], [ 93.139061, 25.350507 ], [ 93.139901, 25.34958 ], [ 93.176165, 25.352943 ], [ 93.23469, 25.348871 ], [ 93.24761, 25.356523 ], [ 93.267075, 25.37824 ], [ 93.267074, 25.378331 ], [ 93.265907, 25.3809 ], [ 93.265206, 25.383107 ], [ 93.286542, 25.413357 ], [ 93.297676, 25.42542 ], [ 93.305238, 25.425329 ], [ 93.347627, 25.434026 ], [ 93.351082, 25.438896 ], [ 93.360064, 25.441728 ] ] } },
{ "type": "Feature", "properties": { "facility": "Dehangi SD [894624]", "minutes": 353.6, "scenario": "normal" }, "geometry": { "type": "LineString", "coordinates": [ [ 93.019992, 25.183735 ], [ 93.017598, 25.133033 ], [ 93.024545, 25.129603 ], [ 93.025323, 25.12618 ], [ 93.025346, 25.126142 ], [ 93.042483, 25.132269 ], [ 93.09953, 25.185798 ], [ 93.113608, 25.178062 ], [ 93.115191, 25.177228 ], [ 93.116707, 25.178465 ], [ 93.12143, 25.176709 ], [ 93.177521, 25.181727 ], [ 93.168479, 25.217595 ], [ 93.164124, 25.226931 ], [ 93.164099, 25.227057 ], [ 93.173082, 25.238584 ], [ 93.188033, 25.2328 ], [ 93.188023, 25.232815 ], [ 93.184445, 25.246901 ], [ 93.199502, 25.260083 ], [ 93.205144, 25.264916 ], [ 93.187217, 25.267544 ], [ 93.169223, 25.276232 ], [ 93.146764, 25.29007 ], [ 93.141715, 25.298241 ], [ 93.13758, 25.301318 ], [ 93.136128, 25.297493 ], [ 93.136378, 25.293283 ], [ 93.133689, 25.295451 ], [ 93.126224, 25.317769 ], [ 93.125852, 25.31968 ], [ 93.112907, 25.316013 ], [ 93.098827, 25.314204 ], [ 93.08029, 25.323611 ], [ 93.070219, 25.318267 ], [ 93.031556, 25.32299 ], [ 93.024808, 25.320677 ], [ 93.008546, 25.317844 ], [ 92.993842, 25.332649 ], [ 92.990517, 25.335101 ], [ 92.988563, 25.349311 ], [ 92.979849, 25.359287 ], [ 92.984073, 25.367944 ], [ 92.984121, 25.368014 ], [ 92.9867, 25.391663 ], [ 93.003972, 25.417136 ], [ 93.003907, 25.417142 ], [ 93.002113, 25.419996 ], [ 92.995427, 25.420885 ], [ 92.994209, 25.423387 ] ] } },
{ "type": "Feature", "properties": { "facility": "Maibang CHC [926890]", "minutes": 198.4, "scenario": "normal" }, "geometry": { "type": "LineString", "coordinates": [ [ 93.019992, 25.183735 ], [ 93.017598, 25.133033 ], [ 93.024545, 25.129603 ], [ 93.025323, 25.12618 ], [ 93.025346, 25.126142 ], [ 93.042483, 25.132269 ], [ 93.09953, 25.185798 ], [ 93.113608, 25.178062 ], [ 93.115191, 25.177228 ], [ 93.116707, 25.178465 ], [ 93.12143, 25.176709 ], [ 93.177521, 25.181727 ], [ 93.168479, 25.217595 ], [ 93.164124, 25.226931 ], [ 93.164099, 25.227057 ], [ 93.173082, 25.238584 ], [ 93.188033, 25.2328 ], [ 93.188023, 25.232815 ], [ 93.184445, 25.246901 ], [ 93.199502, 25.260083 ], [ 93.205144, 25.264916 ], [ 93.187217, 25.267544 ], [ 93.169223, 25.276232 ], [ 93.146764, 25.29007 ], [ 93.141715, 25.298241 ], [ 93.13758, 25.301318 ], [ 93.136128, 25.297493 ] ] } },
{ "type": "Feature", "properties": { "facility": "Langting BPHC [864001]", "minutes": 256.9, "scenario": "normal" }, "geometry": { "type": "LineString", "coordinates": [ [ 93.019992, 25.183735 ], [ 93.017598, 25.133033 ], [ 93.024545, 25.129603 ], [ 93.025323, 25.12618 ], [ 93.025346, 25.126142 ], [ 93.042483, 25.132269 ], [ 93.09953, 25.185798 ], [ 93.113608, 25.178062 ], [ 93.115191, 25.177228 ], [ 93.116707, 25.178465 ], [ 93.12143, 25.176709 ], [ 93.177521, 25.181727 ], [ 93.168479, 25.217595 ], [ 93.164124, 25.226931 ], [ 93.164099, 25.227057 ], [ 93.173082, 25.238584 ], [ 93.188033, 25.2328 ], [ 93.188023, 25.232815 ], [ 93.184445, 25.246901 ], [ 93.199502, 25.260083 ], [ 93.205144, 25.264916 ], [ 93.187217, 25.267544 ], [ 93.169223, 25.276232 ], [ 93.146764, 25.29007 ], [ 93.141715, 25.298241 ], [ 93.13758, 25.301318 ], [ 93.136128, 25.297493 ], [ 93.136378, 25.293283 ], [ 93.133689, 25.295451 ], [ 93.126224, 25.317769 ], [ 93.125852, 25.31968 ], [ 93.12986, 25.322671 ], [ 93.13229, 25.326696 ], [ 93.130764, 25.332878 ], [ 93.127851, 25.337703 ], [ 93.131828, 25.339704 ], [ 93.133003, 25.340896 ], [ 93.139061, 25.350507 ], [ 93.139294, 25.353478 ], [ 93.143891, 25.36633 ], [ 93.14369, 25.470407 ], [ 93.145022, 25.478615 ], [ 93.135632, 25.490835 ], [ 93.114366, 25.496359 ] ] } },
{ "type": "Feature", "properties": { "facility": "JATINGA SD [962751]", "minutes": 19.0, "scenario": "normal" }, "geometry": { "type": "LineString", "coordinates": [ [ 93.019992, 25.183735 ], [ 93.017598, 25.133033 ], [ 93.024545, 25.129603 ], [ 93.025323, 25.12618 ] ] } },
{ "type": "Feature", "properties": { "facility": "Umranso Community Health Centre [894431]", "minutes": 465.9, "scenario": "normal" }, "geometry": { "type": "LineString", "coordinates": [ [ 93.019992, 25.183735 ], [ 93.017598, 25.133033 ], [ 93.024545, 25.129603 ], [ 93.025323, 25.12618 ], [ 93.025346, 25.126142 ], [ 93.042483, 25.132269 ], [ 93.09953, 25.185798 ], [ 93.113608, 25.178062 ], [ 93.115191, 25.177228 ], [ 93.116707, 25.178465 ], [ 93.12143, 25.176709 ], [ 93.177521, 25.181727 ], [ 93.168479, 25.217595 ], [ 93.164124, 25.226931 ], [ 93.164099, 25.227057 ], [ 93.173082, 25.238584 ], [ 93.188033, 25.2328 ], [ 93.188023, 25.232815 ], [ 93.184445, 25.246901 ], [ 93.199502, 25.260083 ], [ 93.205144, 25.264916 ], [ 93.187217, 25.267544 ], [ 93.169223, 25.276232 ], [ 93.146764, 25.29007 ], [ 93.141715, 25.298241 ], [ 93.13758, 25.301318 ], [ 93.136128, 25.297493 ], [ 93.136378, 25.293283 ], [ 93.133689, 25.295451 ], [ 93.126224, 25.317769 ], [ 93.125852, 25.31968 ], [ 93.112907, 25.316013 ], [ 93.098827, 25.314204 ], [ 93.08029, 25.323611 ], [ 93.070219, 25.318267 ], [ 93.031556, 25.32299 ], [ 93.024808, 25.320677 ], [ 93.008546, 25.317844 ], [ 92.993842, 25.332649 ], [ 92.990517, 25.335101 ], [ 92.988563, 25.349311 ], [ 92.979849, 25.359287 ], [ 92.984073, 25.367944 ], [ 92.984121, 25.368014 ], [ 92.9867, 25.391663 ], [ 93.003972, 25.417136 ], [ 93.003907, 25.417142 ], [ 93.002113, 25.419996 ], [ 92.995427, 25.420885 ], [ 92.989854, 25.419003 ], [ 92.963956, 25.442234 ], [ 92.952881, 25.438621 ], [ 92.938028, 25.430071 ], [ 92.924111, 25.441165 ], [ 92.924032, 25.441307 ], [ 92.864999, 25.407512 ], [ 92.824142, 25.411745 ], [ 92.804703, 25.418356 ], [ 92.79371, 25.415205 ], [ 92.792713, 25.413165 ], [ 92.792135, 25.412703 ], [ 92.732694, 25.442582 ], [ 92.733945, 25.461988 ], [ 92.725185, 25.484047 ], [ 92.723697, 25.486578 ], [ 92.723085, 25.488285 ], [ 92.723702, 25.492464 ], [ 92.723706, 25.492533 ], [ 92.725692, 25.497187 ], [ 92.728368, 25.499093 ], [ 92.729254, 25.499654 ], [ 92.72998, 25.500181 ], [ 92.732419, 25.504021 ], [ 92.732578, 25.506177 ] ] } },
{ "type": "Feature", "properties": { "facility": "State Vety Dispensary [895563]", "minutes": 73.6, "scenario": "normal" }, "geometry": { "type": "LineString", "coordinates": [ [ 93.019992, 25.183735 ], [ 93.017598, 25.133033 ], [ 93.024545, 25.129603 ], [ 93.025323, 25.12618 ], [ 93.025346, 25.126142 ], [ 93.025348, 25.125915 ], [ 92.992868, 25.108111 ], [ 92.964448, 25.113655 ], [ 92.92251, 25.109359 ], [ 92.89485, 25.11042 ], [ 92.889249, 25.103457 ], [ 92.854139, 25.10827 ], [ 92.85639, 25.114633 ] ] } },
{ "type": "Feature", "properties": { "facility": "Gunjung BPHC [908102]", "minutes": 311.9, "scenario": "normal" }, "geometry": { "type": "LineString", "coordinates": [ [ 93.019992, 25.183735 ], [ 93.017598, 25.133033 ], [ 93.024545, 25.129603 ], [ 93.025323, 25.12618 ], [ 93.025346, 25.126142 ], [ 93.042483, 25.132269 ], [ 93.09953, 25.185798 ], [ 93.113608, 25.178062 ], [ 93.115191, 25.177228 ], [ 93.116707, 25.178465 ], [ 93.12143, 25.176709 ], [ 93.177521, 25.181727 ], [ 93.168479, 25.217595 ], [ 93.164124, 25.226931 ], [ 93.164099, 25.227057 ], [ 93.173082, 25.238584 ], [ 93.188033, 25.2328 ], [ 93.188023, 25.232815 ], [ 93.184445, 25.246901 ], [ 93.199502, 25.260083 ], [ 93.205144, 25.264916 ], [ 93.187217, 25.267544 ], [ 93.169223, 25.276232 ], [ 93.146764, 25.29007 ], [ 93.141715, 25.298241 ], [ 93.13758, 25.301318 ], [ 93.136128, 25.297493 ], [ 93.136378, 25.293283 ], [ 93.133689, 25.295451 ], [ 93.126224, 25.317769 ], [ 93.125852, 25.31968 ], [ 93.112907, 25.316013 ], [ 93.098827, 25.314204 ], [ 93.08029, 25.323611 ], [ 93.070219, 25.318267 ], [ 93.031556, 25.32299 ], [ 93.024808, 25.320677 ], [ 93.008546, 25.317844 ], [ 93.010006, 25.31583 ] ] } },
{ "type": "Feature", "properties": { "facility": "Diyungmukh MPHC [894498]", "minutes": 464.8, "scenario": "normal" }, "geometry": { "type": "LineString", "coordinates": [ [ 93.019992, 25.183735 ], [ 93.017598, 25.133033 ], [ 93.024545, 25.129603 ], [ 93.025323, 25.12618 ], [ 93.025346, 25.126142 ], [ 93.042483, 25.132269 ], [ 93.09953, 25.185798 ], [ 93.113608, 25.178062 ], [ 93.115191, 25.177228 ], [ 93.116707, 25.178465 ], [ 93.12143, 25.176709 ], [ 93.177521, 25.181727 ], [ 93.168479, 25.217595 ], [ 93.164124, 25.226931 ], [ 93.164099, 25.227057 ], [ 93.173082, 25.238584 ], [ 93.188033, 25.2328 ], [ 93.188023, 25.232815 ], [ 93.184445, 25.246901 ], [ 93.199502, 25.260083 ], [ 93.205144, 25.264916 ], [ 93.187217, 25.267544 ], [ 93.169223, 25.276232 ], [ 93.146764, 25.29007 ], [ 93.141715, 25.298241 ], [ 93.13758, 25.301318 ], [ 93.136128, 25.297493 ], [ 93.136378, 25.293283 ], [ 93.133689, 25.295451 ], [ 93.126224, 25.317769 ], [ 93.125852, 25.31968 ], [ 93.112907, 25.316013 ], [ 93.098827, 25.314204 ], [ 93.08029, 25.323611 ], [ 93.070219, 25.318267 ], [ 93.031556, 25.32299 ], [ 93.024808, 25.320677 ], [ 93.008546, 25.317844 ], [ 92.993842, 25.332649 ], [ 92.990517, 25.335101 ], [ 92.988563, 25.349311 ], [ 92.979849, 25.359287 ], [ 92.984073, 25.367944 ], [ 92.984121, 25.368014 ], [ 92.9867, 25.391663 ], [ 93.003972, 25.417136 ], [ 93.003907, 25.417142 ], [ 93.002113, 25.419996 ], [ 92.995427, 25.420885 ], [ 92.989854, 25.419003 ], [ 92.987502, 25.44617 ], [ 92.964503, 25.480829 ], [ 92.964515, 25.480861 ], [ 92.956844, 25.485618 ], [ 92.956197, 25.485773 ], [ 92.964449, 25.502781 ], [ 92.965783, 25.505621 ], [ 92.974426, 25.545885 ], [ 92.973046, 25.547187 ], [ 92.969964, 25.558885 ], [ 92.970124, 25.559397 ], [ 92.970342, 25.560199 ], [ 92.971325, 25.569243 ], [ 92.968218, 25.573611 ], [ 92.950416, 25.580145 ], [ 92.941596, 25.58511 ], [ 92.924238, 25.604721 ], [ 92.9226, 25.613313 ], [ 92.911807, 25.636933 ], [ 92.919032, 25.648104 ], [ 92.918984, 25.659487 ], [ 92.912085, 25.662648 ], [ 92.908778, 25.730204 ], [ 92.913825, 25.736268 ], [ 92.914371, 25.738406 ], [ 92.914831, 25.74008 ] ] } },
{ "type": "Feature", "properties": { "facility": "Veterinary Firsy Aid Centre [895565]", "minutes": 32.6, "scenario": "normal" }, "geometry": { "type": "LineString", "coordinates": [ [ 93.019992, 25.183735 ], [ 93.017598, 25.133033 ], [ 93.024545, 25.129603 ], [ 93.025323, 25.12618 ], [ 93.025346, 25.126142 ], [ 93.025348, 25.125915 ], [ 92.992868, 25.108111 ], [ 92.992851, 25.108084 ] ] } },
{ "type": "Feature", "properties": { "facility": "Block Primary Health Centre [863353]", "minutes": 49.3, "scenario": "normal" }, "geometry": { "type": "LineString", "coordinates": [ [ 93.019992, 25.183735 ], [ 93.017598, 25.133033 ], [ 93.024545, 25.129603 ], [ 93.025323, 25.12618 ], [ 93.025346, 25.126142 ], [ 93.042483, 25.132269 ], [ 93.09953, 25.185798 ], [ 93.113608, 25.178062 ] ] } },
{ "type": "Feature", "properties": { "facility": "NEEPCO Hospital Umrangso [894445]", "minutes": 467.5, "scenario": "normal" }, "geometry": { "type": "LineString", "coordinates": [ [ 93.019992, 25.183735 ], [ 93.017598, 25.133033 ], [ 93.024545, 25.129603 ], [ 93.025323, 25.12618 ], [ 93.025346, 25.126142 ], [ 93.042483, 25.132269 ], [ 93.09953, 25.185798 ], [ 93.113608, 25.178062 ], [ 93.115191, 25.177228 ], [ 93.116707, 25.178465 ], [ 93.12143, 25.176709 ], [ 93.177521, 25.181727 ], [ 93.168479, 25.217595 ], [ 93.164124, 25.226931 ], [ 93.164099, 25.227057 ], [ 93.173082, 25.238584 ], [ 93.188033, 25.2328 ], [ 93.188023, 25.232815 ], [ 93.184445, 25.246901 ], [ 93.199502, 25.260083 ], [ 93.205144, 25.264916 ], [ 93.187217, 25.267544 ], [ 93.169223, 25.276232 ], [ 93.146764, 25.29007 ], [ 93.141715, 25.298241 ], [ 93.13758, 25.301318 ], [ 93.136128, 25.297493 ], [ 93.136378, 25.293283 ], [ 93.133689, 25.295451 ], [ 93.126224, 25.317769 ], [ 93.125852, 25.31968 ], [ 93.112907, 25.316013 ], [ 93.098827, 25.314204 ], [ 93.08029, 25.323611 ], [ 93.070219, 25.318267 ], [ 93.031556, 25.32299 ], [ 93.024808, 25.320677 ], [ 93.008546, 25.317844 ], [ 92.993842, 25.332649 ], [ 92.990517, 25.335101 ], [ 92.988563, 25.349311 ], [ 92.979849, 25.359287 ], [ 92.984073, 25.367944 ], [ 92.984121, 25.368014 ], [ 92.9867, 25.391663 ], [ 93.003972, 25.417136 ], [ 93.003907, 25.417142 ], [ 93.002113, 25.419996 ], [ 92.995427, 25.420885 ], [ 92.989854, 25.419003 ], [ 92.963956, 25.442234 ], [ 92.952881, 25.438621 ], [ 92.938028, 25.430071 ], [ 92.924111, 25.441165 ], [ 92.924032, 25.441307 ], [ 92.864999, 25.407512 ], [ 92.824142, 25.411745 ], [ 92.804703, 25.418356 ], [ 92.79371, 25.415205 ], [ 92.792713, 25.413165 ], [ 92.792135, 25.412703 ], [ 92.732694, 25.442582 ], [ 92.733945, 25.461988 ], [ 92.725185, 25.484047 ], [ 92.723697, 25.486578 ], [ 92.723085, 25.488285 ], [ 92.723702, 25.492464 ], [ 92.723706, 25.492533 ], [ 92.725692, 25.497187 ], [ 92.728368, 25.499093 ], [ 92.729254, 25.499654 ], [ 92.72998, 25.500181 ], [ 92.732419, 25.504021 ], [ 92.732578, 25.506177 ], [ 92.732627, 25.506927 ], [ 92.732657, 25.507494 ], [ 92.732836, 25.50859 ], [ 92.73282, 25.51073 ], [ 92.734587, 25.512083 ] ] } },
{ "type": "Feature", "properties": { "facility": "State Veterinary Dispensary [963607]", "minutes": 196.9, "scenario": "normal" }, "geometry": { "type": "LineString", "coordinates": [ [ 93.019992, 25.183735 ], [ 93.017598, 25.133033 ], [ 93.024545, 25.129603 ], [ 93.025323, 25.12618 ], [ 93.025346, 25.126142 ], [ 93.042483, 25.132269 ], [ 93.09953, 25.185798 ], [ 93.113608, 25.178062 ], [ 93.115191, 25.177228 ], [ 93.116707, 25.178465 ], [ 93.12143, 25.176709 ], [ 93.177521, 25.181727 ], [ 93.168479, 25.217595 ], [ 93.164124, 25.226931 ], [ 93.164099, 25.227057 ], [ 93.173082, 25.238584 ], [ 93.188033, 25.2328 ], [ 93.188023, 25.232815 ], [ 93.184445, 25.246901 ], [ 93.199502, 25.260083 ], [ 93.205144, 25.264916 ], [ 93.187217, 25.267544 ], [ 93.169223, 25.276232 ], [ 93.146764, 25.29007 ], [ 93.141715, 25.298241 ], [ 93.13758, 25.301318 ] ] } }
]
}
